<?xml version="1.0" encoding="UTF-8"?>
<gpx version="1.1" creator="velo-segment"><trk><name>横岭爬坡</name><trkseg>
<trkpt lat="37.983982" lon="112.444871"></trkpt>
<trkpt lat="37.983986" lon="112.444862"></trkpt>
<trkpt lat="37.983993" lon="112.444847"></trkpt>
<trkpt lat="37.984002" lon="112.444827"></trkpt>
<trkpt lat="37.984017" lon="112.444783"></trkpt>
<trkpt lat="37.984024" lon="112.444756"></trkpt>
<trkpt lat="37.984031" lon="112.444726"></trkpt>
<trkpt lat="37.98404" lon="112.444692"></trkpt>
<trkpt lat="37.984054" lon="112.444654"></trkpt>
<trkpt lat="37.98407" lon="112.444609"></trkpt>
<trkpt lat="37.984085" lon="112.444558"></trkpt>
<trkpt lat="37.984097" lon="112.4445"></trkpt>
<trkpt lat="37.984107" lon="112.444435"></trkpt>
<trkpt lat="37.984114" lon="112.444367"></trkpt>
<trkpt lat="37.984111" lon="112.444226"></trkpt>
<trkpt lat="37.984101" lon="112.444155"></trkpt>
<trkpt lat="37.984083" lon="112.444081"></trkpt>
<trkpt lat="37.98406" lon="112.444008"></trkpt>
<trkpt lat="37.984032" lon="112.443934"></trkpt>
<trkpt lat="37.983971" lon="112.443787"></trkpt>
<trkpt lat="37.983942" lon="112.443716"></trkpt>
<trkpt lat="37.983913" lon="112.443647"></trkpt>
<trkpt lat="37.983887" lon="112.443579"></trkpt>
<trkpt lat="37.983861" lon="112.443512"></trkpt>
<trkpt lat="37.983835" lon="112.443448"></trkpt>
<trkpt lat="37.983809" lon="112.443385"></trkpt>
<trkpt lat="37.983784" lon="112.443324"></trkpt>
<trkpt lat="37.983756" lon="112.443266"></trkpt>
<trkpt lat="37.983729" lon="112.44321"></trkpt>
<trkpt lat="37.983701" lon="112.443155"></trkpt>
<trkpt lat="37.983673" lon="112.4431"></trkpt>
<trkpt lat="37.983621" lon="112.442988"></trkpt>
<trkpt lat="37.983578" lon="112.442874"></trkpt>
<trkpt lat="37.983557" lon="112.442817"></trkpt>
<trkpt lat="37.983536" lon="112.442761"></trkpt>
<trkpt lat="37.983494" lon="112.442652"></trkpt>
<trkpt lat="37.983386" lon="112.442381"></trkpt>
<trkpt lat="37.983258" lon="112.442044"></trkpt>
<trkpt lat="37.983148" lon="112.441779"></trkpt>
<trkpt lat="37.983027" lon="112.44154"></trkpt>
<trkpt lat="37.982919" lon="112.44144"></trkpt>
<trkpt lat="37.982743" lon="112.44137"></trkpt>
<trkpt lat="37.982607" lon="112.441377"></trkpt>
<trkpt lat="37.982319" lon="112.441533"></trkpt>
<trkpt lat="37.982194" lon="112.441576"></trkpt>
<trkpt lat="37.982062" lon="112.441551"></trkpt>
<trkpt lat="37.981941" lon="112.44147"></trkpt>
<trkpt lat="37.981826" lon="112.441291"></trkpt>
<trkpt lat="37.981745" lon="112.440935"></trkpt>
<trkpt lat="37.9817" lon="112.440626"></trkpt>
<trkpt lat="37.981644" lon="112.440174"></trkpt>
<trkpt lat="37.981633" lon="112.439874"></trkpt>
<trkpt lat="37.98167" lon="112.439529"></trkpt>
<trkpt lat="37.981677" lon="112.439484"></trkpt>
<trkpt lat="37.981715" lon="112.439311"></trkpt>
<trkpt lat="37.981727" lon="112.439269"></trkpt>
<trkpt lat="37.981752" lon="112.439184"></trkpt>
<trkpt lat="37.981824" lon="112.438923"></trkpt>
<trkpt lat="37.98187" lon="112.438656"></trkpt>
<trkpt lat="37.981921" lon="112.438404"></trkpt>
<trkpt lat="37.982025" lon="112.438116"></trkpt>
<trkpt lat="37.982189" lon="112.43787"></trkpt>
<trkpt lat="37.982337" lon="112.437724"></trkpt>
<trkpt lat="37.982568" lon="112.43754"></trkpt>
<trkpt lat="37.982672" lon="112.437475"></trkpt>
<trkpt lat="37.982792" lon="112.437468"></trkpt>
<trkpt lat="37.982909" lon="112.437517"></trkpt>
<trkpt lat="37.98306" lon="112.437681"></trkpt>
<trkpt lat="37.983179" lon="112.437871"></trkpt>
<trkpt lat="37.98333" lon="112.438309"></trkpt>
<trkpt lat="37.983394" lon="112.438389"></trkpt>
<trkpt lat="37.983483" lon="112.438416"></trkpt>
<trkpt lat="37.983582" lon="112.438385"></trkpt>
<trkpt lat="37.983716" lon="112.438253"></trkpt>
<trkpt lat="37.983898" lon="112.437952"></trkpt>
<trkpt lat="37.984193" lon="112.43743"></trkpt>
<trkpt lat="37.984481" lon="112.436913"></trkpt>
<trkpt lat="37.984622" lon="112.436649"></trkpt>
<trkpt lat="37.984655" lon="112.436578"></trkpt>
<trkpt lat="37.984691" lon="112.436507"></trkpt>
<trkpt lat="37.984733" lon="112.43644"></trkpt>
<trkpt lat="37.98489" lon="112.436278"></trkpt>
<trkpt lat="37.985017" lon="112.436235"></trkpt>
<trkpt lat="37.985209" lon="112.43627"></trkpt>
<trkpt lat="37.985562" lon="112.43645"></trkpt>
<trkpt lat="37.98569" lon="112.436455"></trkpt>
<trkpt lat="37.985817" lon="112.43641"></trkpt>
<trkpt lat="37.985929" lon="112.436317"></trkpt>
<trkpt lat="37.986233" lon="112.435878"></trkpt>
<trkpt lat="37.986292" lon="112.43574"></trkpt>
<trkpt lat="37.986307" lon="112.435585"></trkpt>
<trkpt lat="37.98625" lon="112.435359"></trkpt>
<trkpt lat="37.986094" lon="112.435033"></trkpt>
<trkpt lat="37.986052" lon="112.434828"></trkpt>
<trkpt lat="37.986091" lon="112.434621"></trkpt>
<trkpt lat="37.986196" lon="112.434437"></trkpt>
<trkpt lat="37.986299" lon="112.434351"></trkpt>
<trkpt lat="37.986785" lon="112.434156"></trkpt>
<trkpt lat="37.987223" lon="112.433952"></trkpt>
<trkpt lat="37.987378" lon="112.43392"></trkpt>
<trkpt lat="37.987573" lon="112.433945"></trkpt>
<trkpt lat="37.987705" lon="112.434024"></trkpt>
<trkpt lat="37.98788" lon="112.434219"></trkpt>
<trkpt lat="37.987976" lon="112.434405"></trkpt>
<trkpt lat="37.988109" lon="112.434776"></trkpt>
<trkpt lat="37.98823" lon="112.435069"></trkpt>
<trkpt lat="37.988352" lon="112.435353"></trkpt>
<trkpt lat="37.988517" lon="112.435621"></trkpt>
<trkpt lat="37.988632" lon="112.43567"></trkpt>
<trkpt lat="37.988759" lon="112.435633"></trkpt>
<trkpt lat="37.988905" lon="112.435514"></trkpt>
<trkpt lat="37.989046" lon="112.435278"></trkpt>
<trkpt lat="37.98909" lon="112.435098"></trkpt>
<trkpt lat="37.989073" lon="112.434952"></trkpt>
<trkpt lat="37.988984" lon="112.434773"></trkpt>
<trkpt lat="37.988755" lon="112.4344"></trkpt>
<trkpt lat="37.988537" lon="112.434005"></trkpt>
<trkpt lat="37.988307" lon="112.433605"></trkpt>
<trkpt lat="37.988111" lon="112.433179"></trkpt>
<trkpt lat="37.988033" lon="112.432897"></trkpt>
<trkpt lat="37.98799" lon="112.432673"></trkpt>
<trkpt lat="37.987945" lon="112.432416"></trkpt>
<trkpt lat="37.98793" lon="112.4323"></trkpt>
<trkpt lat="37.98792" lon="112.432223"></trkpt>
<trkpt lat="37.987876" lon="112.43199"></trkpt>
<trkpt lat="37.987802" lon="112.431727"></trkpt>
<trkpt lat="37.987769" lon="112.431499"></trkpt>
<trkpt lat="37.987768" lon="112.43146"></trkpt>
<trkpt lat="37.987765" lon="112.431384"></trkpt>
<trkpt lat="37.987764" lon="112.431345"></trkpt>
<trkpt lat="37.987768" lon="112.431104"></trkpt>
<trkpt lat="37.987803" lon="112.430867"></trkpt>
<trkpt lat="37.987896" lon="112.430624"></trkpt>
<trkpt lat="37.987963" lon="112.430544"></trkpt>
<trkpt lat="37.988058" lon="112.430519"></trkpt>
<trkpt lat="37.988253" lon="112.430576"></trkpt>
<trkpt lat="37.988464" lon="112.430648"></trkpt>
<trkpt lat="37.988698" lon="112.430633"></trkpt>
<trkpt lat="37.988884" lon="112.430551"></trkpt>
<trkpt lat="37.989117" lon="112.43029"></trkpt>
<trkpt lat="37.989273" lon="112.430108"></trkpt>
<trkpt lat="37.989408" lon="112.430062"></trkpt>
<trkpt lat="37.989672" lon="112.430019"></trkpt>
<trkpt lat="37.989878" lon="112.429937"></trkpt>
<trkpt lat="37.989981" lon="112.42985"></trkpt>
<trkpt lat="37.990149" lon="112.4296"></trkpt>
<trkpt lat="37.990287" lon="112.429385"></trkpt>
<trkpt lat="37.990437" lon="112.429152"></trkpt>
<trkpt lat="37.990479" lon="112.428888"></trkpt>
<trkpt lat="37.990519" lon="112.428653"></trkpt>
<trkpt lat="37.990592" lon="112.428516"></trkpt>
<trkpt lat="37.990789" lon="112.428304"></trkpt>
<trkpt lat="37.990936" lon="112.428141"></trkpt>
<trkpt lat="37.991031" lon="112.42788"></trkpt>
<trkpt lat="37.991095" lon="112.427444"></trkpt>
<trkpt lat="37.99115" lon="112.427284"></trkpt>
<trkpt lat="37.991219" lon="112.427207"></trkpt>
<trkpt lat="37.991311" lon="112.427182"></trkpt>
<trkpt lat="37.991405" lon="112.427229"></trkpt>
<trkpt lat="37.991521" lon="112.427362"></trkpt>
<trkpt lat="37.991735" lon="112.427688"></trkpt>
<trkpt lat="37.991942" lon="112.427914"></trkpt>
<trkpt lat="37.992123" lon="112.427984"></trkpt>
<trkpt lat="37.992314" lon="112.427974"></trkpt>
<trkpt lat="37.992451" lon="112.427909"></trkpt>
<trkpt lat="37.992608" lon="112.427728"></trkpt>
<trkpt lat="37.992661" lon="112.427603"></trkpt>
<trkpt lat="37.992671" lon="112.427354"></trkpt>
<trkpt lat="37.992672" lon="112.427098"></trkpt>
<trkpt lat="37.992711" lon="112.426961"></trkpt>
<trkpt lat="37.992928" lon="112.426631"></trkpt>
<trkpt lat="37.993057" lon="112.426292"></trkpt>
<trkpt lat="37.993121" lon="112.426127"></trkpt>
<trkpt lat="37.993237" lon="112.426016"></trkpt>
<trkpt lat="37.993353" lon="112.425997"></trkpt>
<trkpt lat="37.993474" lon="112.426065"></trkpt>
<trkpt lat="37.993771" lon="112.426382"></trkpt>
<trkpt lat="37.993903" lon="112.426444"></trkpt>
<trkpt lat="37.994051" lon="112.426417"></trkpt>
<trkpt lat="37.994131" lon="112.426335"></trkpt>
<trkpt lat="37.994171" lon="112.4262"></trkpt>
<trkpt lat="37.994161" lon="112.425958"></trkpt>
<trkpt lat="37.994129" lon="112.425623"></trkpt>
<trkpt lat="37.994155" lon="112.42538"></trkpt>
<trkpt lat="37.994222" lon="112.425247"></trkpt>
<trkpt lat="37.994276" lon="112.425208"></trkpt>
<trkpt lat="37.994338" lon="112.425197"></trkpt>
<trkpt lat="37.994467" lon="112.425242"></trkpt>
<trkpt lat="37.994686" lon="112.425455"></trkpt>
<trkpt lat="37.995038" lon="112.425799"></trkpt>
<trkpt lat="37.995211" lon="112.425894"></trkpt>
<trkpt lat="37.995339" lon="112.425898"></trkpt>
<trkpt lat="37.995466" lon="112.425846"></trkpt>
<trkpt lat="37.995636" lon="112.425691"></trkpt>
<trkpt lat="37.995744" lon="112.425453"></trkpt>
<trkpt lat="37.995763" lon="112.425363"></trkpt>
<trkpt lat="37.995778" lon="112.425271"></trkpt>
<trkpt lat="37.995791" lon="112.425177"></trkpt>
<trkpt lat="37.995804" lon="112.425084"></trkpt>
<trkpt lat="37.995818" lon="112.42499"></trkpt>
<trkpt lat="37.995835" lon="112.424897"></trkpt>
<trkpt lat="37.995886" lon="112.424717"></trkpt>
<trkpt lat="37.995928" lon="112.424637"></trkpt>
<trkpt lat="37.995985" lon="112.424576"></trkpt>
<trkpt lat="37.996055" lon="112.424539"></trkpt>
<trkpt lat="37.996133" lon="112.42453"></trkpt>
<trkpt lat="37.996288" lon="112.424579"></trkpt>
<trkpt lat="37.996602" lon="112.424802"></trkpt>
<trkpt lat="37.996721" lon="112.424812"></trkpt>
<trkpt lat="37.997177" lon="112.424666"></trkpt>
<trkpt lat="37.997324" lon="112.424607"></trkpt>
<trkpt lat="37.997396" lon="112.424517"></trkpt>
<trkpt lat="37.99743" lon="112.424387"></trkpt>
<trkpt lat="37.997418" lon="112.424163"></trkpt>
<trkpt lat="37.997366" lon="112.423725"></trkpt>
<trkpt lat="37.9974" lon="112.423512"></trkpt>
<trkpt lat="37.997463" lon="112.423392"></trkpt>
<trkpt lat="37.997558" lon="112.423304"></trkpt>
<trkpt lat="37.997737" lon="112.423245"></trkpt>
<trkpt lat="37.997928" lon="112.423263"></trkpt>
<trkpt lat="37.998117" lon="112.423295"></trkpt>
<trkpt lat="37.998241" lon="112.423273"></trkpt>
<trkpt lat="37.998349" lon="112.423201"></trkpt>
<trkpt lat="37.998431" lon="112.423085"></trkpt>
<trkpt lat="37.998514" lon="112.422866"></trkpt>
<trkpt lat="37.998601" lon="112.422574"></trkpt>
<trkpt lat="37.998677" lon="112.422481"></trkpt>
<trkpt lat="37.998818" lon="112.422429"></trkpt>
<trkpt lat="37.99912" lon="112.422398"></trkpt>
<trkpt lat="37.999284" lon="112.422289"></trkpt>
<trkpt lat="37.999398" lon="112.422071"></trkpt>
<trkpt lat="37.999563" lon="112.421931"></trkpt>
<trkpt lat="37.999743" lon="112.421855"></trkpt>
<trkpt lat="37.999948" lon="112.421786"></trkpt>
<trkpt lat="38.000049" lon="112.421694"></trkpt>
<trkpt lat="38.000103" lon="112.421535"></trkpt>
<trkpt lat="38.000109" lon="112.421158"></trkpt>
<trkpt lat="38.000156" lon="112.420914"></trkpt>
<trkpt lat="38.00022" lon="112.420791"></trkpt>
<trkpt lat="38.000318" lon="112.420732"></trkpt>
<trkpt lat="38.000595" lon="112.420685"></trkpt>
<trkpt lat="38.000819" lon="112.420669"></trkpt>
<trkpt lat="38.001043" lon="112.420633"></trkpt>
<trkpt lat="38.001255" lon="112.420594"></trkpt>
<trkpt lat="38.001425" lon="112.42046"></trkpt>
<trkpt lat="38.001518" lon="112.420365"></trkpt>
<trkpt lat="38.001757" lon="112.420263"></trkpt>
<trkpt lat="38.00188" lon="112.420298"></trkpt>
<trkpt lat="38.002121" lon="112.420479"></trkpt>
<trkpt lat="38.002283" lon="112.420564"></trkpt>
<trkpt lat="38.002431" lon="112.420586"></trkpt>
<trkpt lat="38.00258" lon="112.420502"></trkpt>
<trkpt lat="38.002834" lon="112.420292"></trkpt>
<trkpt lat="38.003071" lon="112.420173"></trkpt>
<trkpt lat="38.003287" lon="112.420121"></trkpt>
<trkpt lat="38.003497" lon="112.420078"></trkpt>
<trkpt lat="38.003697" lon="112.420004"></trkpt>
<trkpt lat="38.003896" lon="112.419984"></trkpt>
<trkpt lat="38.004076" lon="112.419904"></trkpt>
<trkpt lat="38.004184" lon="112.419841"></trkpt>
<trkpt lat="38.004342" lon="112.419579"></trkpt>
<trkpt lat="38.004464" lon="112.419238"></trkpt>
<trkpt lat="38.004608" lon="112.418893"></trkpt>
<trkpt lat="38.004782" lon="112.418577"></trkpt>
<trkpt lat="38.00497" lon="112.418364"></trkpt>
<trkpt lat="38.005141" lon="112.4182"></trkpt>
<trkpt lat="38.005325" lon="112.418048"></trkpt>
<trkpt lat="38.005477" lon="112.417879"></trkpt>
<trkpt lat="38.005578" lon="112.417644"></trkpt>
<trkpt lat="38.005626" lon="112.417274"></trkpt>
<trkpt lat="38.005668" lon="112.416942"></trkpt>
<trkpt lat="38.005772" lon="112.416517"></trkpt>
<trkpt lat="38.005821" lon="112.416256"></trkpt>
<trkpt lat="38.005804" lon="112.41612"></trkpt>
<trkpt lat="38.005737" lon="112.416007"></trkpt>
<trkpt lat="38.005632" lon="112.415942"></trkpt>
<trkpt lat="38.005511" lon="112.415942"></trkpt>
<trkpt lat="38.005397" lon="112.416002"></trkpt>
<trkpt lat="38.005262" lon="112.41616"></trkpt>
<trkpt lat="38.005" lon="112.416628"></trkpt>
<trkpt lat="38.00477" lon="112.417074"></trkpt>
<trkpt lat="38.004561" lon="112.417548"></trkpt>
<trkpt lat="38.004333" lon="112.418013"></trkpt>
<trkpt lat="38.004112" lon="112.41835"></trkpt>
<trkpt lat="38.003976" lon="112.418449"></trkpt>
<trkpt lat="38.003814" lon="112.41846"></trkpt>
<trkpt lat="38.003451" lon="112.418376"></trkpt>
<trkpt lat="38.003244" lon="112.418406"></trkpt>
<trkpt lat="38.002959" lon="112.418575"></trkpt>
<trkpt lat="38.002775" lon="112.418689"></trkpt>
<trkpt lat="38.002678" lon="112.418689"></trkpt>
<trkpt lat="38.002598" lon="112.418621"></trkpt>
<trkpt lat="38.002575" lon="112.418497"></trkpt>
<trkpt lat="38.002606" lon="112.418356"></trkpt>
<trkpt lat="38.002852" lon="112.417852"></trkpt>
<trkpt lat="38.003093" lon="112.417428"></trkpt>
<trkpt lat="38.00329" lon="112.417124"></trkpt>
<trkpt lat="38.003323" lon="112.416983"></trkpt>
<trkpt lat="38.003293" lon="112.416849"></trkpt>
<trkpt lat="38.003212" lon="112.416761"></trkpt>
<trkpt lat="38.003109" lon="112.416742"></trkpt>
<trkpt lat="38.00301" lon="112.416782"></trkpt>
<trkpt lat="38.002863" lon="112.416949"></trkpt>
<trkpt lat="38.002705" lon="112.417252"></trkpt>
<trkpt lat="38.002577" lon="112.417503"></trkpt>
<trkpt lat="38.0025" lon="112.417705"></trkpt>
<trkpt lat="38.00241" lon="112.417935"></trkpt>
<trkpt lat="38.002318" lon="112.41813"></trkpt>
<trkpt lat="38.002184" lon="112.41825"></trkpt>
<trkpt lat="38.002083" lon="112.418275"></trkpt>
<trkpt lat="38.001816" lon="112.418198"></trkpt>
<trkpt lat="38.001629" lon="112.418066"></trkpt>
<trkpt lat="38.001548" lon="112.418044"></trkpt>
<trkpt lat="38.001429" lon="112.418076"></trkpt>
<trkpt lat="38.001328" lon="112.418185"></trkpt>
<trkpt lat="38.00126" lon="112.418286"></trkpt>
<trkpt lat="38.001157" lon="112.418341"></trkpt>
<trkpt lat="38.001114" lon="112.418437"></trkpt>
<trkpt lat="38.001084" lon="112.418709"></trkpt>
<trkpt lat="38.001063" lon="112.418927"></trkpt>
<trkpt lat="38.001103" lon="112.419032"></trkpt>
<trkpt lat="38.001247" lon="112.41915"></trkpt>
<trkpt lat="38.001435" lon="112.419197"></trkpt>
<trkpt lat="38.001684" lon="112.419167"></trkpt>
<trkpt lat="38.001799" lon="112.419105"></trkpt>
<trkpt lat="38.001862" lon="112.419026"></trkpt>
<trkpt lat="38.001893" lon="112.418909"></trkpt>
<trkpt lat="38.001873" lon="112.418782"></trkpt>
<trkpt lat="38.001773" lon="112.418627"></trkpt>
<trkpt lat="38.001634" lon="112.418539"></trkpt>
<trkpt lat="38.00126" lon="112.418366"></trkpt>
<trkpt lat="38.001051" lon="112.418255"></trkpt>
<trkpt lat="38.000815" lon="112.418159"></trkpt>
<trkpt lat="38.000602" lon="112.418077"></trkpt>
<trkpt lat="38.000426" lon="112.418018"></trkpt>
<trkpt lat="38.000253" lon="112.41793"></trkpt>
<trkpt lat="38.000055" lon="112.417832"></trkpt>
<trkpt lat="37.999892" lon="112.417768"></trkpt>
<trkpt lat="37.999631" lon="112.417721"></trkpt>
<trkpt lat="37.999435" lon="112.417683"></trkpt>
<trkpt lat="37.999236" lon="112.417627"></trkpt>
<trkpt lat="37.999012" lon="112.417578"></trkpt>
<trkpt lat="37.99876" lon="112.417558"></trkpt>
<trkpt lat="37.998507" lon="112.417555"></trkpt>
<trkpt lat="37.998354" lon="112.417591"></trkpt>
<trkpt lat="37.998252" lon="112.41768"></trkpt>
<trkpt lat="37.998228" lon="112.417795"></trkpt>
<trkpt lat="37.998257" lon="112.417874"></trkpt>
<trkpt lat="37.998355" lon="112.417952"></trkpt>
<trkpt lat="37.998744" lon="112.418042"></trkpt>
<trkpt lat="37.999208" lon="112.418245"></trkpt>
<trkpt lat="37.999553" lon="112.418428"></trkpt>
<trkpt lat="37.999589" lon="112.418514"></trkpt>
<trkpt lat="37.999559" lon="112.418606"></trkpt>
<trkpt lat="37.999482" lon="112.418654"></trkpt>
<trkpt lat="37.999351" lon="112.418647"></trkpt>
<trkpt lat="37.999125" lon="112.418486"></trkpt>
<trkpt lat="37.998849" lon="112.418346"></trkpt>
<trkpt lat="37.998638" lon="112.418258"></trkpt>
<trkpt lat="37.99834" lon="112.418179"></trkpt>
<trkpt lat="37.998039" lon="112.418127"></trkpt>
<trkpt lat="37.99766" lon="112.418119"></trkpt>
<trkpt lat="37.997255" lon="112.418144"></trkpt>
<trkpt lat="37.996811" lon="112.418162"></trkpt>
<trkpt lat="37.996407" lon="112.418197"></trkpt>
<trkpt lat="37.996191" lon="112.418196"></trkpt>
<trkpt lat="37.996021" lon="112.418189"></trkpt>
<trkpt lat="37.995824" lon="112.41814"></trkpt>
<trkpt lat="37.995751" lon="112.418045"></trkpt>
<trkpt lat="37.995726" lon="112.417897"></trkpt>
<trkpt lat="37.995778" lon="112.417742"></trkpt>
<trkpt lat="37.995889" lon="112.417629"></trkpt>
<trkpt lat="37.99626" lon="112.417476"></trkpt>
<trkpt lat="37.996626" lon="112.417297"></trkpt>
<trkpt lat="37.996903" lon="112.417096"></trkpt>
<trkpt lat="37.997171" lon="112.416896"></trkpt>
<trkpt lat="37.997428" lon="112.416698"></trkpt>
<trkpt lat="37.997649" lon="112.41656"></trkpt>
<trkpt lat="37.99781" lon="112.416472"></trkpt>
<trkpt lat="37.997996" lon="112.416367"></trkpt>
<trkpt lat="37.998238" lon="112.416305"></trkpt>
<trkpt lat="37.998511" lon="112.416231"></trkpt>
<trkpt lat="37.998746" lon="112.416189"></trkpt>
<trkpt lat="37.999055" lon="112.416255"></trkpt>
<trkpt lat="37.999262" lon="112.416309"></trkpt>
<trkpt lat="37.999601" lon="112.416279"></trkpt>
<trkpt lat="37.999781" lon="112.416232"></trkpt>
<trkpt lat="37.999951" lon="112.416175"></trkpt>
<trkpt lat="38.000164" lon="112.41615"></trkpt>
<trkpt lat="38.000416" lon="112.416178"></trkpt>
<trkpt lat="38.000677" lon="112.416226"></trkpt>
<trkpt lat="38.0009" lon="112.416279"></trkpt>
<trkpt lat="38.001085" lon="112.416301"></trkpt>
<trkpt lat="38.001233" lon="112.416274"></trkpt>
<trkpt lat="38.001429" lon="112.41613"></trkpt>
<trkpt lat="38.001495" lon="112.416005"></trkpt>
<trkpt lat="38.001486" lon="112.415858"></trkpt>
<trkpt lat="38.001404" lon="112.415624"></trkpt>
<trkpt lat="38.001395" lon="112.415595"></trkpt>
<trkpt lat="38.001388" lon="112.415569"></trkpt>
<trkpt lat="38.001379" lon="112.415545"></trkpt>
<trkpt lat="38.001366" lon="112.415525"></trkpt>
<trkpt lat="38.001351" lon="112.415506"></trkpt>
<trkpt lat="38.001338" lon="112.415486"></trkpt>
<trkpt lat="38.001332" lon="112.415465"></trkpt>
<trkpt lat="38.001338" lon="112.415445"></trkpt>
<trkpt lat="38.001413" lon="112.415368"></trkpt>
<trkpt lat="38.001418" lon="112.415239"></trkpt>
<trkpt lat="38.001522" lon="112.415064"></trkpt>
<trkpt lat="38.001478" lon="112.414914"></trkpt>
<trkpt lat="38.001412" lon="112.414838"></trkpt>
<trkpt lat="38.001254" lon="112.4148"></trkpt>
<trkpt lat="38.001148" lon="112.414797"></trkpt>
<trkpt lat="38.00097" lon="112.414892"></trkpt>
<trkpt lat="38.00082" lon="112.414937"></trkpt>
<trkpt lat="38.000643" lon="112.415"></trkpt>
<trkpt lat="38.000451" lon="112.415052"></trkpt>
<trkpt lat="38.000274" lon="112.415117"></trkpt>
<trkpt lat="38.000059" lon="112.415228"></trkpt>
<trkpt lat="37.999919" lon="112.415266"></trkpt>
<trkpt lat="37.999662" lon="112.415242"></trkpt>
<trkpt lat="37.999488" lon="112.415148"></trkpt>
<trkpt lat="37.999363" lon="112.415044"></trkpt>
<trkpt lat="37.99924" lon="112.414783"></trkpt>
<trkpt lat="37.999131" lon="112.414501"></trkpt>
<trkpt lat="37.998975" lon="112.414261"></trkpt>
<trkpt lat="37.998796" lon="112.414138"></trkpt>
<trkpt lat="37.998627" lon="112.414094"></trkpt>
<trkpt lat="37.998515" lon="112.414068"></trkpt>
<trkpt lat="37.998407" lon="112.414098"></trkpt>
<trkpt lat="37.998104" lon="112.414382"></trkpt>
<trkpt lat="37.997966" lon="112.414428"></trkpt>
<trkpt lat="37.997789" lon="112.414433"></trkpt>
<trkpt lat="37.997687" lon="112.414373"></trkpt>
<trkpt lat="37.997611" lon="112.414254"></trkpt>
<trkpt lat="37.997495" lon="112.413948"></trkpt>
<trkpt lat="37.997408" lon="112.413787"></trkpt>
<trkpt lat="37.997287" lon="112.413693"></trkpt>
<trkpt lat="37.997124" lon="112.413655"></trkpt>
<trkpt lat="37.996898" lon="112.413698"></trkpt>
<trkpt lat="37.996639" lon="112.413847"></trkpt>
<trkpt lat="37.99646" lon="112.414044"></trkpt>
<trkpt lat="37.996303" lon="112.414345"></trkpt>
<trkpt lat="37.996203" lon="112.414549"></trkpt>
<trkpt lat="37.996129" lon="112.414623"></trkpt>
<trkpt lat="37.996039" lon="112.414648"></trkpt>
<trkpt lat="37.99591" lon="112.414613"></trkpt>
<trkpt lat="37.995616" lon="112.414401"></trkpt>
<trkpt lat="37.995495" lon="112.414402"></trkpt>
<trkpt lat="37.995347" lon="112.414496"></trkpt>
<trkpt lat="37.995213" lon="112.414734"></trkpt>
<trkpt lat="37.995069" lon="112.415018"></trkpt>
<trkpt lat="37.994954" lon="112.415261"></trkpt>
<trkpt lat="37.994875" lon="112.415466"></trkpt>
<trkpt lat="37.994676" lon="112.415681"></trkpt>
<trkpt lat="37.994473" lon="112.415901"></trkpt>
<trkpt lat="37.994234" lon="112.416126"></trkpt>
<trkpt lat="37.993974" lon="112.416304"></trkpt>
<trkpt lat="37.993768" lon="112.41632"></trkpt>
<trkpt lat="37.993643" lon="112.416265"></trkpt>
<trkpt lat="37.993553" lon="112.41614"></trkpt>
<trkpt lat="37.9935" lon="112.415937"></trkpt>
<trkpt lat="37.993504" lon="112.415723"></trkpt>
<trkpt lat="37.993586" lon="112.415357"></trkpt>
<trkpt lat="37.993646" lon="112.414978"></trkpt>
<trkpt lat="37.993703" lon="112.414539"></trkpt>
<trkpt lat="37.993793" lon="112.414062"></trkpt>
<trkpt lat="37.993902" lon="112.413543"></trkpt>
<trkpt lat="37.994021" lon="112.412996"></trkpt>
<trkpt lat="37.994011" lon="112.412855"></trkpt>
<trkpt lat="37.993953" lon="112.412727"></trkpt>
<trkpt lat="37.993798" lon="112.412589"></trkpt>
<trkpt lat="37.993345" lon="112.412364"></trkpt>
<trkpt lat="37.99313" lon="112.41223"></trkpt>
<trkpt lat="37.99279" lon="112.411879"></trkpt>
<trkpt lat="37.992457" lon="112.411467"></trkpt>
<trkpt lat="37.992349" lon="112.411371"></trkpt>
<trkpt lat="37.992222" lon="112.411329"></trkpt>
<trkpt lat="37.992157" lon="112.411339"></trkpt>
<trkpt lat="37.992097" lon="112.411373"></trkpt>
<trkpt lat="37.99201" lon="112.411493"></trkpt>
<trkpt lat="37.991971" lon="112.411644"></trkpt>
<trkpt lat="37.992" lon="112.412163"></trkpt>
<trkpt lat="37.992005" lon="112.412453"></trkpt>
<trkpt lat="37.992034" lon="112.412856"></trkpt>
<trkpt lat="37.992027" lon="112.413223"></trkpt>
<trkpt lat="37.991976" lon="112.41335"></trkpt>
<trkpt lat="37.991849" lon="112.413461"></trkpt>
<trkpt lat="37.991693" lon="112.413509"></trkpt>
<trkpt lat="37.991355" lon="112.413498"></trkpt>
<trkpt lat="37.991253" lon="112.413557"></trkpt>
<trkpt lat="37.991186" lon="112.413667"></trkpt>
<trkpt lat="37.991105" lon="112.414063"></trkpt>
<trkpt lat="37.991081" lon="112.414423"></trkpt>
<trkpt lat="37.991042" lon="112.414641"></trkpt>
<trkpt lat="37.990985" lon="112.414763"></trkpt>
<trkpt lat="37.990803" lon="112.414938"></trkpt>
<trkpt lat="37.990604" lon="112.415035"></trkpt>
<trkpt lat="37.990497" lon="112.415046"></trkpt>
<trkpt lat="37.990369" lon="112.414965"></trkpt>
<trkpt lat="37.990265" lon="112.414836"></trkpt>
<trkpt lat="37.990153" lon="112.414511"></trkpt>
<trkpt lat="37.990047" lon="112.414176"></trkpt>
<trkpt lat="37.989907" lon="112.413812"></trkpt>
<trkpt lat="37.989776" lon="112.413567"></trkpt>
<trkpt lat="37.989625" lon="112.413413"></trkpt>
<trkpt lat="37.989469" lon="112.413351"></trkpt>
<trkpt lat="37.98927" lon="112.413362"></trkpt>
<trkpt lat="37.988927" lon="112.413476"></trkpt>
<trkpt lat="37.988646" lon="112.413527"></trkpt>
<trkpt lat="37.988485" lon="112.413514"></trkpt>
<trkpt lat="37.988168" lon="112.413408"></trkpt>
<trkpt lat="37.987848" lon="112.41324"></trkpt>
<trkpt lat="37.987672" lon="112.413225"></trkpt>
<trkpt lat="37.987548" lon="112.413299"></trkpt>
<trkpt lat="37.987358" lon="112.41356"></trkpt>
<trkpt lat="37.987114" lon="112.41401"></trkpt>
<trkpt lat="37.987041" lon="112.414054"></trkpt>
</trkseg></trk></gpx>