<?xml version="1.0" encoding="UTF-8"?>
<gpx version="1.1" creator="velo-segment"><trk><name>万柏林生态园（长风口-启春阁）</name><trkseg>
<trkpt lat="37.823209" lon="112.474882"></trkpt>
<trkpt lat="37.823234" lon="112.474789"></trkpt>
<trkpt lat="37.823441" lon="112.474637"></trkpt>
<trkpt lat="37.823437" lon="112.474616"></trkpt>
<trkpt lat="37.823436" lon="112.474454"></trkpt>
<trkpt lat="37.823451" lon="112.474081"></trkpt>
<trkpt lat="37.82346" lon="112.473928"></trkpt>
<trkpt lat="37.823451" lon="112.473587"></trkpt>
<trkpt lat="37.823239" lon="112.473196"></trkpt>
<trkpt lat="37.823031" lon="112.4728"></trkpt>
<trkpt lat="37.823056" lon="112.472384"></trkpt>
<trkpt lat="37.823359" lon="112.472018"></trkpt>
<trkpt lat="37.823754" lon="112.472023"></trkpt>
<trkpt lat="37.823894" lon="112.472218"></trkpt>
<trkpt lat="37.8238" lon="112.472531"></trkpt>
<trkpt lat="37.823624" lon="112.472987"></trkpt>
<trkpt lat="37.823753" lon="112.473284"></trkpt>
<trkpt lat="37.824072" lon="112.473368"></trkpt>
<trkpt lat="37.824301" lon="112.47311"></trkpt>
<trkpt lat="37.824444" lon="112.472864"></trkpt>
<trkpt lat="37.824498" lon="112.472826"></trkpt>
<trkpt lat="37.824655" lon="112.472662"></trkpt>
<trkpt lat="37.824743" lon="112.472542"></trkpt>
<trkpt lat="37.824896" lon="112.472388"></trkpt>
<trkpt lat="37.825399" lon="112.47218"></trkpt>
<trkpt lat="37.825678" lon="112.471855"></trkpt>
<trkpt lat="37.825859" lon="112.471524"></trkpt>
<trkpt lat="37.826067" lon="112.471016"></trkpt>
<trkpt lat="37.825967" lon="112.470443"></trkpt>
<trkpt lat="37.826016" lon="112.469885"></trkpt>
<trkpt lat="37.825997" lon="112.469309"></trkpt>
<trkpt lat="37.826251" lon="112.46882"></trkpt>
<trkpt lat="37.826553" lon="112.468182"></trkpt>
<trkpt lat="37.826865" lon="112.467496"></trkpt>
<trkpt lat="37.827223" lon="112.466811"></trkpt>
<trkpt lat="37.827303" lon="112.46664"></trkpt>
<trkpt lat="37.827348" lon="112.466446"></trkpt>
<trkpt lat="37.827382" lon="112.466242"></trkpt>
<trkpt lat="37.827301" lon="112.465781"></trkpt>
<trkpt lat="37.82731" lon="112.4653"></trkpt>
<trkpt lat="37.827447" lon="112.464457"></trkpt>
<trkpt lat="37.827693" lon="112.463802"></trkpt>
<trkpt lat="37.827953" lon="112.463278"></trkpt>
<trkpt lat="37.828107" lon="112.462445"></trkpt>
<trkpt lat="37.828086" lon="112.462067"></trkpt>
<trkpt lat="37.827849" lon="112.46163"></trkpt>
<trkpt lat="37.827633" lon="112.461142"></trkpt>
<trkpt lat="37.827705" lon="112.460812"></trkpt>
<trkpt lat="37.827914" lon="112.460355"></trkpt>
<trkpt lat="37.827988" lon="112.459796"></trkpt>
<trkpt lat="37.82795" lon="112.459302"></trkpt>
<trkpt lat="37.828154" lon="112.45898"></trkpt>
<trkpt lat="37.828152" lon="112.458834"></trkpt>
<trkpt lat="37.828093" lon="112.458693"></trkpt>
<trkpt lat="37.828009" lon="112.458557"></trkpt>
<trkpt lat="37.82793" lon="112.458417"></trkpt>
<trkpt lat="37.827874" lon="112.458261"></trkpt>
<trkpt lat="37.827847" lon="112.458002"></trkpt>
<trkpt lat="37.827989" lon="112.457702"></trkpt>
<trkpt lat="37.828104" lon="112.457577"></trkpt>
<trkpt lat="37.82818" lon="112.457415"></trkpt>
<trkpt lat="37.828155" lon="112.457231"></trkpt>
<trkpt lat="37.827765" lon="112.45677"></trkpt>
<trkpt lat="37.827668" lon="112.456428"></trkpt>
<trkpt lat="37.827654" lon="112.456149"></trkpt>
<trkpt lat="37.827601" lon="112.455776"></trkpt>
<trkpt lat="37.827577" lon="112.455369"></trkpt>
<trkpt lat="37.82763" lon="112.454881"></trkpt>
<trkpt lat="37.827721" lon="112.454233"></trkpt>
<trkpt lat="37.827798" lon="112.453335"></trkpt>
<trkpt lat="37.82792" lon="112.452497"></trkpt>
<trkpt lat="37.82791" lon="112.452354"></trkpt>
<trkpt lat="37.827475" lon="112.451993"></trkpt>
<trkpt lat="37.826943" lon="112.451522"></trkpt>
<trkpt lat="37.826884" lon="112.451488"></trkpt>
<trkpt lat="37.826823" lon="112.451461"></trkpt>
<trkpt lat="37.826759" lon="112.451449"></trkpt>
<trkpt lat="37.826489" lon="112.451542"></trkpt>
<trkpt lat="37.826163" lon="112.451483"></trkpt>
<trkpt lat="37.825713" lon="112.451559"></trkpt>
<trkpt lat="37.8254" lon="112.451841"></trkpt>
<trkpt lat="37.825091" lon="112.452246"></trkpt>
<trkpt lat="37.824828" lon="112.452559"></trkpt>
<trkpt lat="37.82433" lon="112.452662"></trkpt>
<trkpt lat="37.823821" lon="112.45275"></trkpt>
<trkpt lat="37.82322" lon="112.45286"></trkpt>
<trkpt lat="37.822363" lon="112.453003"></trkpt>
<trkpt lat="37.821758" lon="112.453262"></trkpt>
<trkpt lat="37.821309" lon="112.453596"></trkpt>
<trkpt lat="37.821076" lon="112.453475"></trkpt>
<trkpt lat="37.820981" lon="112.453224"></trkpt>
<trkpt lat="37.821016" lon="112.45279"></trkpt>
<trkpt lat="37.821269" lon="112.452646"></trkpt>
<trkpt lat="37.821492" lon="112.452452"></trkpt>
<trkpt lat="37.821567" lon="112.452145"></trkpt>
<trkpt lat="37.821682" lon="112.451885"></trkpt>
<trkpt lat="37.822115" lon="112.451821"></trkpt>
<trkpt lat="37.822469" lon="112.451793"></trkpt>
<trkpt lat="37.822923" lon="112.451673"></trkpt>
<trkpt lat="37.823454" lon="112.45151"></trkpt>
<trkpt lat="37.823964" lon="112.451043"></trkpt>
<trkpt lat="37.824088" lon="112.450564"></trkpt>
<trkpt lat="37.823869" lon="112.450243"></trkpt>
<trkpt lat="37.823737" lon="112.449974"></trkpt>
<trkpt lat="37.823811" lon="112.449678"></trkpt>
<trkpt lat="37.82408" lon="112.449739"></trkpt>
<trkpt lat="37.824192" lon="112.449577"></trkpt>
<trkpt lat="37.824038" lon="112.449164"></trkpt>
<trkpt lat="37.824072" lon="112.448915"></trkpt>
<trkpt lat="37.82443" lon="112.44861"></trkpt>
</trkseg></trk></gpx>