<?xml version="1.0" encoding="UTF-8"?>
<gpx version="1.1" creator="velo-segment"><trk><name>夜骑清徐（迎宾桥→无名桥）</name><trkseg>
<trkpt lat="37.685203" lon="112.505475"></trkpt>
<trkpt lat="37.685154" lon="112.505402"></trkpt>
<trkpt lat="37.684749" lon="112.504745"></trkpt>
<trkpt lat="37.68469" lon="112.504641"></trkpt>
<trkpt lat="37.684579" lon="112.504425"></trkpt>
<trkpt lat="37.684526" lon="112.504315"></trkpt>
<trkpt lat="37.684472" lon="112.504204"></trkpt>
<trkpt lat="37.684419" lon="112.504092"></trkpt>
<trkpt lat="37.684366" lon="112.503978"></trkpt>
<trkpt lat="37.684314" lon="112.50386"></trkpt>
<trkpt lat="37.684262" lon="112.503739"></trkpt>
<trkpt lat="37.684209" lon="112.503614"></trkpt>
<trkpt lat="37.684156" lon="112.503485"></trkpt>
<trkpt lat="37.684104" lon="112.503353"></trkpt>
<trkpt lat="37.684051" lon="112.50322"></trkpt>
<trkpt lat="37.683998" lon="112.503086"></trkpt>
<trkpt lat="37.683946" lon="112.50295"></trkpt>
<trkpt lat="37.683895" lon="112.502815"></trkpt>
<trkpt lat="37.683843" lon="112.502679"></trkpt>
<trkpt lat="37.683791" lon="112.502542"></trkpt>
<trkpt lat="37.68374" lon="112.502405"></trkpt>
<trkpt lat="37.683689" lon="112.502266"></trkpt>
<trkpt lat="37.683636" lon="112.502128"></trkpt>
<trkpt lat="37.683582" lon="112.501989"></trkpt>
<trkpt lat="37.683527" lon="112.50185"></trkpt>
<trkpt lat="37.683417" lon="112.501571"></trkpt>
<trkpt lat="37.683361" lon="112.501431"></trkpt>
<trkpt lat="37.683197" lon="112.501009"></trkpt>
<trkpt lat="37.683143" lon="112.500867"></trkpt>
<trkpt lat="37.682814" lon="112.500026"></trkpt>
<trkpt lat="37.682653" lon="112.49962"></trkpt>
<trkpt lat="37.68223" lon="112.498566"></trkpt>
<trkpt lat="37.68185" lon="112.497531"></trkpt>
<trkpt lat="37.681547" lon="112.496461"></trkpt>
<trkpt lat="37.681481" lon="112.496181"></trkpt>
<trkpt lat="37.681288" lon="112.495095"></trkpt>
<trkpt lat="37.681203" lon="112.494327"></trkpt>
<trkpt lat="37.681158" lon="112.493441"></trkpt>
<trkpt lat="37.681201" lon="112.492395"></trkpt>
<trkpt lat="37.681267" lon="112.491574"></trkpt>
<trkpt lat="37.681406" lon="112.490672"></trkpt>
<trkpt lat="37.681629" lon="112.489728"></trkpt>
<trkpt lat="37.681887" lon="112.488777"></trkpt>
<trkpt lat="37.682162" lon="112.487789"></trkpt>
<trkpt lat="37.682418" lon="112.486832"></trkpt>
<trkpt lat="37.682687" lon="112.48584"></trkpt>
<trkpt lat="37.68297" lon="112.484854"></trkpt>
<trkpt lat="37.683257" lon="112.483784"></trkpt>
<trkpt lat="37.683535" lon="112.482751"></trkpt>
<trkpt lat="37.68383" lon="112.48168"></trkpt>
<trkpt lat="37.684106" lon="112.480667"></trkpt>
<trkpt lat="37.684367" lon="112.479649"></trkpt>
<trkpt lat="37.684563" lon="112.478589"></trkpt>
<trkpt lat="37.684666" lon="112.477757"></trkpt>
<trkpt lat="37.684711" lon="112.47688"></trkpt>
<trkpt lat="37.684699" lon="112.476126"></trkpt>
<trkpt lat="37.684657" lon="112.475258"></trkpt>
<trkpt lat="37.684647" lon="112.475116"></trkpt>
<trkpt lat="37.684561" lon="112.474546"></trkpt>
<trkpt lat="37.684509" lon="112.474259"></trkpt>
<trkpt lat="37.684323" lon="112.473285"></trkpt>
<trkpt lat="37.684073" lon="112.472352"></trkpt>
<trkpt lat="37.683941" lon="112.471973"></trkpt>
<trkpt lat="37.683805" lon="112.471598"></trkpt>
<trkpt lat="37.683435" lon="112.47071"></trkpt>
<trkpt lat="37.683261" lon="112.470339"></trkpt>
<trkpt lat="37.683198" lon="112.470217"></trkpt>
<trkpt lat="37.68271" lon="112.469375"></trkpt>
<trkpt lat="37.682273" lon="112.468704"></trkpt>
<trkpt lat="37.681679" lon="112.46797"></trkpt>
<trkpt lat="37.681068" lon="112.467314"></trkpt>
<trkpt lat="37.680481" lon="112.466652"></trkpt>
<trkpt lat="37.67986" lon="112.465959"></trkpt>
<trkpt lat="37.679288" lon="112.46536"></trkpt>
<trkpt lat="37.679154" lon="112.465202"></trkpt>
<trkpt lat="37.678686" lon="112.464674"></trkpt>
<trkpt lat="37.678512" lon="112.464474"></trkpt>
<trkpt lat="37.678328" lon="112.464262"></trkpt>
<trkpt lat="37.678233" lon="112.464153"></trkpt>
<trkpt lat="37.678137" lon="112.464042"></trkpt>
<trkpt lat="37.677942" lon="112.463821"></trkpt>
<trkpt lat="37.677382" lon="112.463161"></trkpt>
<trkpt lat="37.677201" lon="112.462939"></trkpt>
<trkpt lat="37.676462" lon="112.4621"></trkpt>
<trkpt lat="37.675783" lon="112.46131"></trkpt>
<trkpt lat="37.675148" lon="112.4606"></trkpt>
<trkpt lat="37.674499" lon="112.459881"></trkpt>
<trkpt lat="37.673852" lon="112.459167"></trkpt>
<trkpt lat="37.6732" lon="112.45846"></trkpt>
<trkpt lat="37.67257" lon="112.457749"></trkpt>
<trkpt lat="37.671911" lon="112.457008"></trkpt>
<trkpt lat="37.671262" lon="112.456291"></trkpt>
<trkpt lat="37.670608" lon="112.455563"></trkpt>
<trkpt lat="37.66997" lon="112.454834"></trkpt>
<trkpt lat="37.669306" lon="112.454088"></trkpt>
<trkpt lat="37.66862" lon="112.453319"></trkpt>
<trkpt lat="37.667944" lon="112.452562"></trkpt>
<trkpt lat="37.667307" lon="112.45185"></trkpt>
<trkpt lat="37.666701" lon="112.451152"></trkpt>
<trkpt lat="37.666106" lon="112.450496"></trkpt>
<trkpt lat="37.665511" lon="112.449834"></trkpt>
<trkpt lat="37.664888" lon="112.44914"></trkpt>
<trkpt lat="37.664267" lon="112.448442"></trkpt>
<trkpt lat="37.663632" lon="112.447727"></trkpt>
<trkpt lat="37.66295" lon="112.446988"></trkpt>
<trkpt lat="37.662244" lon="112.446256"></trkpt>
<trkpt lat="37.661603" lon="112.445625"></trkpt>
<trkpt lat="37.660879" lon="112.444943"></trkpt>
<trkpt lat="37.660169" lon="112.444224"></trkpt>
<trkpt lat="37.659475" lon="112.443546"></trkpt>
<trkpt lat="37.658786" lon="112.442874"></trkpt>
<trkpt lat="37.658126" lon="112.442225"></trkpt>
<trkpt lat="37.657471" lon="112.441587"></trkpt>
<trkpt lat="37.656777" lon="112.44093"></trkpt>
<trkpt lat="37.656018" lon="112.44018"></trkpt>
<trkpt lat="37.65534" lon="112.439523"></trkpt>
<trkpt lat="37.654569" lon="112.438774"></trkpt>
<trkpt lat="37.653851" lon="112.438025"></trkpt>
<trkpt lat="37.653493" lon="112.437651"></trkpt>
<trkpt lat="37.652913" lon="112.437159"></trkpt>
<trkpt lat="37.652204" lon="112.436454"></trkpt>
<trkpt lat="37.651701" lon="112.435916"></trkpt>
<trkpt lat="37.651093" lon="112.435152"></trkpt>
<trkpt lat="37.650577" lon="112.434417"></trkpt>
<trkpt lat="37.650126" lon="112.433688"></trkpt>
<trkpt lat="37.649758" lon="112.433003"></trkpt>
<trkpt lat="37.649373" lon="112.432185"></trkpt>
<trkpt lat="37.649012" lon="112.431286"></trkpt>
<trkpt lat="37.648703" lon="112.430324"></trkpt>
<trkpt lat="37.648442" lon="112.429301"></trkpt>
<trkpt lat="37.64824" lon="112.428258"></trkpt>
<trkpt lat="37.648071" lon="112.427201"></trkpt>
<trkpt lat="37.647893" lon="112.426131"></trkpt>
<trkpt lat="37.647713" lon="112.425064"></trkpt>
<trkpt lat="37.647522" lon="112.423925"></trkpt>
<trkpt lat="37.647295" lon="112.422761"></trkpt>
<trkpt lat="37.647035" lon="112.421604"></trkpt>
<trkpt lat="37.646894" lon="112.42104"></trkpt>
<trkpt lat="37.646824" lon="112.420759"></trkpt>
<trkpt lat="37.646536" lon="112.41968"></trkpt>
<trkpt lat="37.64622" lon="112.418635"></trkpt>
<trkpt lat="37.646014" lon="112.417993"></trkpt>
<trkpt lat="37.64566" lon="112.416965"></trkpt>
<trkpt lat="37.645568" lon="112.416709"></trkpt>
<trkpt lat="37.645177" lon="112.4157"></trkpt>
<trkpt lat="37.644804" lon="112.41475"></trkpt>
<trkpt lat="37.644647" lon="112.414396"></trkpt>
<trkpt lat="37.644267" lon="112.413533"></trkpt>
<trkpt lat="37.644084" lon="112.413158"></trkpt>
<trkpt lat="37.643578" lon="112.412147"></trkpt>
<trkpt lat="37.643079" lon="112.411214"></trkpt>
<trkpt lat="37.642789" lon="112.410695"></trkpt>
<trkpt lat="37.642236" lon="112.409821"></trkpt>
<trkpt lat="37.641664" lon="112.40891"></trkpt>
<trkpt lat="37.641035" lon="112.407961"></trkpt>
<trkpt lat="37.640965" lon="112.407858"></trkpt>
<trkpt lat="37.640389" lon="112.407047"></trkpt>
<trkpt lat="37.639828" lon="112.406317"></trkpt>
<trkpt lat="37.639275" lon="112.405623"></trkpt>
<trkpt lat="37.638743" lon="112.404987"></trkpt>
</trkseg></trk></gpx>