<?xml version="1.0" encoding="UTF-8"?>
<gpx version="1.1" creator="velo-segment"><trk><name>狼坡</name><trkseg>
<trkpt lat="37.798553" lon="112.38762"></trkpt>
<trkpt lat="37.798375" lon="112.38739"></trkpt>
<trkpt lat="37.798193" lon="112.387205"></trkpt>
<trkpt lat="37.798036" lon="112.387042"></trkpt>
<trkpt lat="37.797897" lon="112.386786"></trkpt>
<trkpt lat="37.797822" lon="112.386487"></trkpt>
<trkpt lat="37.797735" lon="112.386157"></trkpt>
<trkpt lat="37.797655" lon="112.385922"></trkpt>
<trkpt lat="37.79762" lon="112.385743"></trkpt>
<trkpt lat="37.797596" lon="112.385574"></trkpt>
<trkpt lat="37.797616" lon="112.38539"></trkpt>
<trkpt lat="37.79774" lon="112.385224"></trkpt>
<trkpt lat="37.797835" lon="112.385046"></trkpt>
<trkpt lat="37.797848" lon="112.384939"></trkpt>
<trkpt lat="37.797821" lon="112.384727"></trkpt>
<trkpt lat="37.797803" lon="112.384557"></trkpt>
<trkpt lat="37.797826" lon="112.384354"></trkpt>
<trkpt lat="37.797833" lon="112.384138"></trkpt>
<trkpt lat="37.797761" lon="112.383992"></trkpt>
<trkpt lat="37.797743" lon="112.383821"></trkpt>
<trkpt lat="37.797674" lon="112.383645"></trkpt>
<trkpt lat="37.797636" lon="112.383548"></trkpt>
<trkpt lat="37.797635" lon="112.383394"></trkpt>
<trkpt lat="37.797534" lon="112.383233"></trkpt>
<trkpt lat="37.797486" lon="112.383012"></trkpt>
<trkpt lat="37.797424" lon="112.382752"></trkpt>
<trkpt lat="37.797367" lon="112.38249"></trkpt>
<trkpt lat="37.797316" lon="112.382224"></trkpt>
<trkpt lat="37.797321" lon="112.381965"></trkpt>
<trkpt lat="37.797331" lon="112.381739"></trkpt>
<trkpt lat="37.797274" lon="112.381578"></trkpt>
<trkpt lat="37.797254" lon="112.381356"></trkpt>
<trkpt lat="37.797222" lon="112.381193"></trkpt>
<trkpt lat="37.797189" lon="112.381014"></trkpt>
<trkpt lat="37.797172" lon="112.380832"></trkpt>
<trkpt lat="37.797225" lon="112.380726"></trkpt>
<trkpt lat="37.797364" lon="112.380629"></trkpt>
<trkpt lat="37.797496" lon="112.380585"></trkpt>
<trkpt lat="37.797621" lon="112.380547"></trkpt>
<trkpt lat="37.797666" lon="112.38051"></trkpt>
<trkpt lat="37.797714" lon="112.380389"></trkpt>
<trkpt lat="37.797767" lon="112.380289"></trkpt>
<trkpt lat="37.79779" lon="112.380244"></trkpt>
<trkpt lat="37.797739" lon="112.380153"></trkpt>
<trkpt lat="37.797765" lon="112.380048"></trkpt>
<trkpt lat="37.797833" lon="112.379957"></trkpt>
<trkpt lat="37.797861" lon="112.379921"></trkpt>
<trkpt lat="37.797826" lon="112.379805"></trkpt>
<trkpt lat="37.797855" lon="112.379763"></trkpt>
<trkpt lat="37.797917" lon="112.379728"></trkpt>
<trkpt lat="37.797884" lon="112.37963"></trkpt>
<trkpt lat="37.797906" lon="112.379575"></trkpt>
<trkpt lat="37.797983" lon="112.379543"></trkpt>
<trkpt lat="37.797949" lon="112.379407"></trkpt>
<trkpt lat="37.798012" lon="112.37929"></trkpt>
<trkpt lat="37.798034" lon="112.379038"></trkpt>
<trkpt lat="37.798025" lon="112.378919"></trkpt>
<trkpt lat="37.797874" lon="112.378648"></trkpt>
<trkpt lat="37.797763" lon="112.378505"></trkpt>
<trkpt lat="37.797766" lon="112.378398"></trkpt>
<trkpt lat="37.797777" lon="112.378323"></trkpt>
<trkpt lat="37.797741" lon="112.378237"></trkpt>
<trkpt lat="37.797782" lon="112.37813"></trkpt>
<trkpt lat="37.797773" lon="112.378056"></trkpt>
<trkpt lat="37.797815" lon="112.377957"></trkpt>
<trkpt lat="37.797782" lon="112.377917"></trkpt>
<trkpt lat="37.797713" lon="112.377884"></trkpt>
<trkpt lat="37.797685" lon="112.377815"></trkpt>
<trkpt lat="37.797612" lon="112.377789"></trkpt>
<trkpt lat="37.797595" lon="112.377677"></trkpt>
<trkpt lat="37.79754" lon="112.377621"></trkpt>
<trkpt lat="37.797561" lon="112.377502"></trkpt>
<trkpt lat="37.797515" lon="112.377434"></trkpt>
<trkpt lat="37.797543" lon="112.377365"></trkpt>
<trkpt lat="37.797478" lon="112.377274"></trkpt>
<trkpt lat="37.797492" lon="112.377174"></trkpt>
<trkpt lat="37.797432" lon="112.377113"></trkpt>
<trkpt lat="37.797424" lon="112.377026"></trkpt>
<trkpt lat="37.797446" lon="112.376965"></trkpt>
<trkpt lat="37.797399" lon="112.376887"></trkpt>
<trkpt lat="37.79742" lon="112.376816"></trkpt>
<trkpt lat="37.79748" lon="112.376765"></trkpt>
<trkpt lat="37.797461" lon="112.376674"></trkpt>
<trkpt lat="37.797493" lon="112.376636"></trkpt>
<trkpt lat="37.797559" lon="112.376627"></trkpt>
<trkpt lat="37.79755" lon="112.376603"></trkpt>
<trkpt lat="37.79761" lon="112.376579"></trkpt>
<trkpt lat="37.797679" lon="112.376457"></trkpt>
<trkpt lat="37.797762" lon="112.37637"></trkpt>
<trkpt lat="37.79782" lon="112.376334"></trkpt>
<trkpt lat="37.79786" lon="112.376203"></trkpt>
<trkpt lat="37.797949" lon="112.376139"></trkpt>
<trkpt lat="37.797992" lon="112.375973"></trkpt>
<trkpt lat="37.797957" lon="112.375839"></trkpt>
<trkpt lat="37.797847" lon="112.375695"></trkpt>
<trkpt lat="37.797779" lon="112.375604"></trkpt>
<trkpt lat="37.797709" lon="112.375534"></trkpt>
<trkpt lat="37.797653" lon="112.375391"></trkpt>
<trkpt lat="37.797651" lon="112.375227"></trkpt>
<trkpt lat="37.797688" lon="112.375109"></trkpt>
<trkpt lat="37.797772" lon="112.374952"></trkpt>
<trkpt lat="37.797782" lon="112.374836"></trkpt>
<trkpt lat="37.797756" lon="112.374744"></trkpt>
<trkpt lat="37.797713" lon="112.374734"></trkpt>
<trkpt lat="37.797633" lon="112.374731"></trkpt>
<trkpt lat="37.797579" lon="112.374615"></trkpt>
<trkpt lat="37.797503" lon="112.374573"></trkpt>
<trkpt lat="37.797493" lon="112.374488"></trkpt>
<trkpt lat="37.79754" lon="112.37434"></trkpt>
<trkpt lat="37.797536" lon="112.374118"></trkpt>
<trkpt lat="37.797537" lon="112.373942"></trkpt>
<trkpt lat="37.797596" lon="112.373806"></trkpt>
<trkpt lat="37.797672" lon="112.373734"></trkpt>
<trkpt lat="37.7977" lon="112.373625"></trkpt>
<trkpt lat="37.797763" lon="112.373572"></trkpt>
<trkpt lat="37.797761" lon="112.373472"></trkpt>
<trkpt lat="37.797809" lon="112.373418"></trkpt>
<trkpt lat="37.7978" lon="112.373262"></trkpt>
<trkpt lat="37.797849" lon="112.373136"></trkpt>
<trkpt lat="37.797995" lon="112.372977"></trkpt>
<trkpt lat="37.798081" lon="112.372868"></trkpt>
<trkpt lat="37.798254" lon="112.37272"></trkpt>
<trkpt lat="37.798526" lon="112.372593"></trkpt>
<trkpt lat="37.798817" lon="112.372487"></trkpt>
<trkpt lat="37.798895" lon="112.372411"></trkpt>
<trkpt lat="37.798965" lon="112.372241"></trkpt>
<trkpt lat="37.799072" lon="112.371794"></trkpt>
<trkpt lat="37.799134" lon="112.371646"></trkpt>
<trkpt lat="37.799197" lon="112.371648"></trkpt>
<trkpt lat="37.799273" lon="112.371528"></trkpt>
<trkpt lat="37.799296" lon="112.371407"></trkpt>
<trkpt lat="37.79936" lon="112.371277"></trkpt>
<trkpt lat="37.799425" lon="112.371175"></trkpt>
<trkpt lat="37.799519" lon="112.37109"></trkpt>
<trkpt lat="37.799604" lon="112.370989"></trkpt>
<trkpt lat="37.799614" lon="112.370903"></trkpt>
<trkpt lat="37.799573" lon="112.370858"></trkpt>
<trkpt lat="37.799443" lon="112.370848"></trkpt>
<trkpt lat="37.799341" lon="112.370803"></trkpt>
<trkpt lat="37.799298" lon="112.370751"></trkpt>
<trkpt lat="37.799317" lon="112.370594"></trkpt>
<trkpt lat="37.799334" lon="112.370524"></trkpt>
<trkpt lat="37.799438" lon="112.370454"></trkpt>
<trkpt lat="37.799453" lon="112.370338"></trkpt>
<trkpt lat="37.799545" lon="112.370247"></trkpt>
<trkpt lat="37.799561" lon="112.370086"></trkpt>
<trkpt lat="37.799597" lon="112.369991"></trkpt>
<trkpt lat="37.799675" lon="112.369906"></trkpt>
<trkpt lat="37.799691" lon="112.36984"></trkpt>
<trkpt lat="37.799612" lon="112.369666"></trkpt>
<trkpt lat="37.799522" lon="112.369507"></trkpt>
<trkpt lat="37.799412" lon="112.369311"></trkpt>
<trkpt lat="37.799323" lon="112.369034"></trkpt>
<trkpt lat="37.799199" lon="112.368627"></trkpt>
<trkpt lat="37.799143" lon="112.368059"></trkpt>
<trkpt lat="37.799091" lon="112.367808"></trkpt>
<trkpt lat="37.799005" lon="112.367614"></trkpt>
<trkpt lat="37.79893" lon="112.367539"></trkpt>
<trkpt lat="37.798693" lon="112.367484"></trkpt>
<trkpt lat="37.798505" lon="112.367329"></trkpt>
<trkpt lat="37.798386" lon="112.367167"></trkpt>
<trkpt lat="37.798242" lon="112.366926"></trkpt>
<trkpt lat="37.798169" lon="112.366764"></trkpt>
<trkpt lat="37.798149" lon="112.366576"></trkpt>
<trkpt lat="37.798054" lon="112.366341"></trkpt>
<trkpt lat="37.798015" lon="112.366113"></trkpt>
<trkpt lat="37.797911" lon="112.365871"></trkpt>
<trkpt lat="37.797837" lon="112.365731"></trkpt>
<trkpt lat="37.797665" lon="112.365567"></trkpt>
<trkpt lat="37.797594" lon="112.365529"></trkpt>
<trkpt lat="37.79737" lon="112.365536"></trkpt>
<trkpt lat="37.797151" lon="112.365465"></trkpt>
<trkpt lat="37.796993" lon="112.365394"></trkpt>
<trkpt lat="37.796927" lon="112.365292"></trkpt>
<trkpt lat="37.796866" lon="112.365191"></trkpt>
<trkpt lat="37.796674" lon="112.365026"></trkpt>
<trkpt lat="37.796485" lon="112.364861"></trkpt>
<trkpt lat="37.796282" lon="112.364668"></trkpt>
<trkpt lat="37.796119" lon="112.364509"></trkpt>
<trkpt lat="37.795879" lon="112.36441"></trkpt>
<trkpt lat="37.795741" lon="112.364406"></trkpt>
<trkpt lat="37.79554" lon="112.364436"></trkpt>
<trkpt lat="37.79541" lon="112.364439"></trkpt>
<trkpt lat="37.79526" lon="112.364458"></trkpt>
<trkpt lat="37.794997" lon="112.364405"></trkpt>
<trkpt lat="37.794837" lon="112.364451"></trkpt>
<trkpt lat="37.794651" lon="112.364531"></trkpt>
<trkpt lat="37.794437" lon="112.364536"></trkpt>
<trkpt lat="37.794316" lon="112.36454"></trkpt>
<trkpt lat="37.794219" lon="112.364472"></trkpt>
<trkpt lat="37.794149" lon="112.364477"></trkpt>
<trkpt lat="37.794084" lon="112.364414"></trkpt>
<trkpt lat="37.79403" lon="112.364341"></trkpt>
<trkpt lat="37.793916" lon="112.364313"></trkpt>
<trkpt lat="37.79386" lon="112.364231"></trkpt>
<trkpt lat="37.793812" lon="112.364121"></trkpt>
<trkpt lat="37.793678" lon="112.364038"></trkpt>
<trkpt lat="37.793594" lon="112.36384"></trkpt>
<trkpt lat="37.793505" lon="112.363691"></trkpt>
<trkpt lat="37.793406" lon="112.363575"></trkpt>
<trkpt lat="37.793295" lon="112.363365"></trkpt>
<trkpt lat="37.793189" lon="112.363165"></trkpt>
<trkpt lat="37.793114" lon="112.363022"></trkpt>
<trkpt lat="37.793052" lon="112.362917"></trkpt>
<trkpt lat="37.792941" lon="112.362769"></trkpt>
<trkpt lat="37.792883" lon="112.362577"></trkpt>
<trkpt lat="37.79278" lon="112.362447"></trkpt>
<trkpt lat="37.792716" lon="112.362274"></trkpt>
<trkpt lat="37.792657" lon="112.362196"></trkpt>
<trkpt lat="37.792555" lon="112.36215"></trkpt>
<trkpt lat="37.792474" lon="112.362058"></trkpt>
<trkpt lat="37.792386" lon="112.362055"></trkpt>
<trkpt lat="37.792325" lon="112.362104"></trkpt>
<trkpt lat="37.792297" lon="112.362197"></trkpt>
<trkpt lat="37.792303" lon="112.362509"></trkpt>
<trkpt lat="37.792363" lon="112.362804"></trkpt>
<trkpt lat="37.792378" lon="112.363002"></trkpt>
<trkpt lat="37.792321" lon="112.363215"></trkpt>
<trkpt lat="37.79224" lon="112.363433"></trkpt>
<trkpt lat="37.792191" lon="112.363616"></trkpt>
<trkpt lat="37.792101" lon="112.363803"></trkpt>
<trkpt lat="37.792071" lon="112.364048"></trkpt>
<trkpt lat="37.792094" lon="112.364274"></trkpt>
<trkpt lat="37.792193" lon="112.364489"></trkpt>
<trkpt lat="37.792266" lon="112.364625"></trkpt>
<trkpt lat="37.792387" lon="112.364948"></trkpt>
<trkpt lat="37.79249" lon="112.365234"></trkpt>
<trkpt lat="37.792486" lon="112.365457"></trkpt>
</trkseg></trk></gpx>