<?xml version="1.0" encoding="UTF-8"?>
<gpx version="1.1" creator="velo-segment"><trk><name>天龙山网红公路爬坡</name><trkseg>
<trkpt lat="37.705553" lon="112.429566"></trkpt>
<trkpt lat="37.7057" lon="112.429529"></trkpt>
<trkpt lat="37.705969" lon="112.429336"></trkpt>
<trkpt lat="37.705996" lon="112.429316"></trkpt>
<trkpt lat="37.70613" lon="112.429221"></trkpt>
<trkpt lat="37.706216" lon="112.429167"></trkpt>
<trkpt lat="37.706243" lon="112.429148"></trkpt>
<trkpt lat="37.70627" lon="112.429129"></trkpt>
<trkpt lat="37.706492" lon="112.428976"></trkpt>
<trkpt lat="37.706573" lon="112.428914"></trkpt>
<trkpt lat="37.706601" lon="112.428894"></trkpt>
<trkpt lat="37.706812" lon="112.428723"></trkpt>
<trkpt lat="37.707034" lon="112.428516"></trkpt>
<trkpt lat="37.707218" lon="112.428321"></trkpt>
<trkpt lat="37.707408" lon="112.428121"></trkpt>
<trkpt lat="37.707602" lon="112.427921"></trkpt>
<trkpt lat="37.707765" lon="112.42775"></trkpt>
<trkpt lat="37.707858" lon="112.427647"></trkpt>
<trkpt lat="37.708039" lon="112.427442"></trkpt>
<trkpt lat="37.708222" lon="112.427204"></trkpt>
<trkpt lat="37.708236" lon="112.427169"></trkpt>
<trkpt lat="37.708323" lon="112.426839"></trkpt>
<trkpt lat="37.708337" lon="112.426447"></trkpt>
<trkpt lat="37.708358" lon="112.426086"></trkpt>
<trkpt lat="37.708409" lon="112.425665"></trkpt>
<trkpt lat="37.708448" lon="112.425384"></trkpt>
<trkpt lat="37.708466" lon="112.425081"></trkpt>
<trkpt lat="37.708419" lon="112.424898"></trkpt>
<trkpt lat="37.708319" lon="112.424751"></trkpt>
<trkpt lat="37.708129" lon="112.424619"></trkpt>
<trkpt lat="37.707899" lon="112.424479"></trkpt>
<trkpt lat="37.707805" lon="112.424404"></trkpt>
<trkpt lat="37.707784" lon="112.42438"></trkpt>
<trkpt lat="37.707692" lon="112.424189"></trkpt>
<trkpt lat="37.707654" lon="112.424001"></trkpt>
<trkpt lat="37.707713" lon="112.423667"></trkpt>
<trkpt lat="37.707747" lon="112.423265"></trkpt>
<trkpt lat="37.707781" lon="112.423128"></trkpt>
<trkpt lat="37.707949" lon="112.422861"></trkpt>
<trkpt lat="37.708156" lon="112.42264"></trkpt>
<trkpt lat="37.708343" lon="112.422449"></trkpt>
<trkpt lat="37.708519" lon="112.422257"></trkpt>
<trkpt lat="37.708691" lon="112.422065"></trkpt>
<trkpt lat="37.708868" lon="112.42188"></trkpt>
<trkpt lat="37.708926" lon="112.421808"></trkpt>
<trkpt lat="37.709112" lon="112.42162"></trkpt>
<trkpt lat="37.709247" lon="112.421437"></trkpt>
<trkpt lat="37.709379" lon="112.421198"></trkpt>
<trkpt lat="37.709504" lon="112.420941"></trkpt>
<trkpt lat="37.709618" lon="112.42077"></trkpt>
<trkpt lat="37.709658" lon="112.420715"></trkpt>
<trkpt lat="37.709721" lon="112.420639"></trkpt>
<trkpt lat="37.709892" lon="112.420455"></trkpt>
<trkpt lat="37.7101" lon="112.420265"></trkpt>
<trkpt lat="37.710251" lon="112.420127"></trkpt>
<trkpt lat="37.710427" lon="112.419916"></trkpt>
<trkpt lat="37.710615" lon="112.419655"></trkpt>
<trkpt lat="37.710841" lon="112.419358"></trkpt>
<trkpt lat="37.711058" lon="112.419098"></trkpt>
<trkpt lat="37.71128" lon="112.418841"></trkpt>
<trkpt lat="37.711468" lon="112.41865"></trkpt>
<trkpt lat="37.711598" lon="112.418481"></trkpt>
<trkpt lat="37.711692" lon="112.418273"></trkpt>
<trkpt lat="37.711782" lon="112.417933"></trkpt>
<trkpt lat="37.711848" lon="112.417632"></trkpt>
<trkpt lat="37.711928" lon="112.417382"></trkpt>
<trkpt lat="37.711967" lon="112.417277"></trkpt>
<trkpt lat="37.711981" lon="112.417243"></trkpt>
<trkpt lat="37.711995" lon="112.417209"></trkpt>
<trkpt lat="37.71201" lon="112.417176"></trkpt>
<trkpt lat="37.712163" lon="112.416939"></trkpt>
<trkpt lat="37.712337" lon="112.416738"></trkpt>
<trkpt lat="37.71253" lon="112.416551"></trkpt>
<trkpt lat="37.712692" lon="112.416385"></trkpt>
<trkpt lat="37.712874" lon="112.416177"></trkpt>
<trkpt lat="37.713034" lon="112.41591"></trkpt>
<trkpt lat="37.713166" lon="112.415587"></trkpt>
<trkpt lat="37.713306" lon="112.415249"></trkpt>
<trkpt lat="37.713433" lon="112.414926"></trkpt>
<trkpt lat="37.713548" lon="112.414636"></trkpt>
<trkpt lat="37.713676" lon="112.414302"></trkpt>
<trkpt lat="37.713815" lon="112.414018"></trkpt>
<trkpt lat="37.713964" lon="112.413754"></trkpt>
<trkpt lat="37.714131" lon="112.413523"></trkpt>
<trkpt lat="37.71429" lon="112.413405"></trkpt>
<trkpt lat="37.714412" lon="112.413387"></trkpt>
<trkpt lat="37.714554" lon="112.413459"></trkpt>
<trkpt lat="37.714749" lon="112.413703"></trkpt>
<trkpt lat="37.7148" lon="112.413833"></trkpt>
<trkpt lat="37.714816" lon="112.413979"></trkpt>
<trkpt lat="37.714709" lon="112.414288"></trkpt>
<trkpt lat="37.714563" lon="112.414552"></trkpt>
<trkpt lat="37.714445" lon="112.414695"></trkpt>
<trkpt lat="37.714338" lon="112.414837"></trkpt>
<trkpt lat="37.714169" lon="112.415158"></trkpt>
<trkpt lat="37.714056" lon="112.415318"></trkpt>
<trkpt lat="37.713897" lon="112.415398"></trkpt>
<trkpt lat="37.713729" lon="112.415404"></trkpt>
<trkpt lat="37.713616" lon="112.415339"></trkpt>
<trkpt lat="37.713359" lon="112.415062"></trkpt>
<trkpt lat="37.713174" lon="112.414839"></trkpt>
<trkpt lat="37.713122" lon="112.414693"></trkpt>
<trkpt lat="37.71312" lon="112.414532"></trkpt>
<trkpt lat="37.713221" lon="112.414224"></trkpt>
<trkpt lat="37.713423" lon="112.413851"></trkpt>
<trkpt lat="37.713628" lon="112.413486"></trkpt>
<trkpt lat="37.713805" lon="112.413233"></trkpt>
<trkpt lat="37.713955" lon="112.413113"></trkpt>
<trkpt lat="37.714174" lon="112.413039"></trkpt>
<trkpt lat="37.714515" lon="112.412958"></trkpt>
<trkpt lat="37.714858" lon="112.412843"></trkpt>
<trkpt lat="37.715108" lon="112.412729"></trkpt>
<trkpt lat="37.715209" lon="112.412631"></trkpt>
<trkpt lat="37.715304" lon="112.412447"></trkpt>
<trkpt lat="37.715341" lon="112.412235"></trkpt>
<trkpt lat="37.715321" lon="112.412012"></trkpt>
<trkpt lat="37.71518" lon="112.411596"></trkpt>
<trkpt lat="37.715058" lon="112.411196"></trkpt>
<trkpt lat="37.714931" lon="112.410777"></trkpt>
<trkpt lat="37.714812" lon="112.410375"></trkpt>
<trkpt lat="37.714802" lon="112.410217"></trkpt>
<trkpt lat="37.714843" lon="112.410012"></trkpt>
<trkpt lat="37.714915" lon="112.409887"></trkpt>
<trkpt lat="37.71509" lon="112.409737"></trkpt>
<trkpt lat="37.715343" lon="112.409658"></trkpt>
<trkpt lat="37.715602" lon="112.409625"></trkpt>
<trkpt lat="37.715727" lon="112.40966"></trkpt>
<trkpt lat="37.715834" lon="112.409747"></trkpt>
<trkpt lat="37.715927" lon="112.409928"></trkpt>
<trkpt lat="37.716035" lon="112.410339"></trkpt>
<trkpt lat="37.716102" lon="112.410748"></trkpt>
<trkpt lat="37.716165" lon="112.411154"></trkpt>
<trkpt lat="37.716152" lon="112.411401"></trkpt>
<trkpt lat="37.716074" lon="112.411574"></trkpt>
<trkpt lat="37.715941" lon="112.411698"></trkpt>
<trkpt lat="37.715752" lon="112.411785"></trkpt>
<trkpt lat="37.715428" lon="112.411816"></trkpt>
<trkpt lat="37.715114" lon="112.41189"></trkpt>
<trkpt lat="37.714923" lon="112.411879"></trkpt>
<trkpt lat="37.714747" lon="112.411794"></trkpt>
<trkpt lat="37.714625" lon="112.411666"></trkpt>
<trkpt lat="37.714555" lon="112.411465"></trkpt>
<trkpt lat="37.714493" lon="112.411009"></trkpt>
<trkpt lat="37.714384" lon="112.410569"></trkpt>
<trkpt lat="37.714248" lon="112.410277"></trkpt>
<trkpt lat="37.714039" lon="112.409952"></trkpt>
<trkpt lat="37.713862" lon="112.409691"></trkpt>
<trkpt lat="37.71369" lon="112.409372"></trkpt>
<trkpt lat="37.713622" lon="112.409082"></trkpt>
<trkpt lat="37.713651" lon="112.408917"></trkpt>
<trkpt lat="37.713735" lon="112.408796"></trkpt>
<trkpt lat="37.713851" lon="112.408721"></trkpt>
<trkpt lat="37.714041" lon="112.408694"></trkpt>
<trkpt lat="37.71433" lon="112.408709"></trkpt>
<trkpt lat="37.714612" lon="112.408716"></trkpt>
<trkpt lat="37.714892" lon="112.408687"></trkpt>
<trkpt lat="37.715149" lon="112.408572"></trkpt>
<trkpt lat="37.715366" lon="112.408412"></trkpt>
<trkpt lat="37.715601" lon="112.408186"></trkpt>
<trkpt lat="37.715803" lon="112.407976"></trkpt>
<trkpt lat="37.715953" lon="112.407751"></trkpt>
<trkpt lat="37.71606" lon="112.4074"></trkpt>
<trkpt lat="37.716155" lon="112.407079"></trkpt>
<trkpt lat="37.716255" lon="112.406907"></trkpt>
<trkpt lat="37.716375" lon="112.406813"></trkpt>
<trkpt lat="37.71656" lon="112.40675"></trkpt>
<trkpt lat="37.716821" lon="112.406729"></trkpt>
<trkpt lat="37.717019" lon="112.406698"></trkpt>
<trkpt lat="37.717242" lon="112.406576"></trkpt>
<trkpt lat="37.717396" lon="112.406434"></trkpt>
<trkpt lat="37.717557" lon="112.406187"></trkpt>
<trkpt lat="37.717628" lon="112.405973"></trkpt>
<trkpt lat="37.717673" lon="112.405654"></trkpt>
<trkpt lat="37.717731" lon="112.405435"></trkpt>
<trkpt lat="37.717806" lon="112.405312"></trkpt>
<trkpt lat="37.717933" lon="112.405224"></trkpt>
<trkpt lat="37.718053" lon="112.405224"></trkpt>
<trkpt lat="37.718228" lon="112.405303"></trkpt>
<trkpt lat="37.718416" lon="112.405493"></trkpt>
<trkpt lat="37.718671" lon="112.405622"></trkpt>
<trkpt lat="37.718888" lon="112.405636"></trkpt>
<trkpt lat="37.719154" lon="112.405577"></trkpt>
<trkpt lat="37.719413" lon="112.405509"></trkpt>
<trkpt lat="37.719636" lon="112.40545"></trkpt>
<trkpt lat="37.719862" lon="112.405392"></trkpt>
<trkpt lat="37.720089" lon="112.405341"></trkpt>
<trkpt lat="37.720315" lon="112.405343"></trkpt>
<trkpt lat="37.720474" lon="112.405451"></trkpt>
<trkpt lat="37.720561" lon="112.405568"></trkpt>
<trkpt lat="37.720638" lon="112.405853"></trkpt>
<trkpt lat="37.720672" lon="112.406226"></trkpt>
<trkpt lat="37.720702" lon="112.406613"></trkpt>
<trkpt lat="37.720749" lon="112.406841"></trkpt>
<trkpt lat="37.720836" lon="112.406999"></trkpt>
<trkpt lat="37.72096" lon="112.407111"></trkpt>
<trkpt lat="37.721117" lon="112.40717"></trkpt>
<trkpt lat="37.721321" lon="112.407163"></trkpt>
<trkpt lat="37.721527" lon="112.407096"></trkpt>
<trkpt lat="37.721636" lon="112.406998"></trkpt>
<trkpt lat="37.721715" lon="112.406858"></trkpt>
<trkpt lat="37.721763" lon="112.406638"></trkpt>
<trkpt lat="37.721805" lon="112.406195"></trkpt>
<trkpt lat="37.721845" lon="112.405746"></trkpt>
<trkpt lat="37.721847" lon="112.405357"></trkpt>
<trkpt lat="37.721793" lon="112.405036"></trkpt>
<trkpt lat="37.721667" lon="112.40462"></trkpt>
<trkpt lat="37.721532" lon="112.4042"></trkpt>
<trkpt lat="37.721393" lon="112.403956"></trkpt>
<trkpt lat="37.721243" lon="112.403822"></trkpt>
<trkpt lat="37.72107" lon="112.403771"></trkpt>
<trkpt lat="37.720856" lon="112.403818"></trkpt>
<trkpt lat="37.72052" lon="112.403961"></trkpt>
<trkpt lat="37.720272" lon="112.404061"></trkpt>
<trkpt lat="37.719997" lon="112.404177"></trkpt>
<trkpt lat="37.719723" lon="112.404285"></trkpt>
<trkpt lat="37.719451" lon="112.404381"></trkpt>
<trkpt lat="37.719417" lon="112.404391"></trkpt>
<trkpt lat="37.719383" lon="112.404397"></trkpt>
<trkpt lat="37.719179" lon="112.40438"></trkpt>
<trkpt lat="37.718986" lon="112.404306"></trkpt>
<trkpt lat="37.718868" lon="112.404179"></trkpt>
<trkpt lat="37.718704" lon="112.403937"></trkpt>
<trkpt lat="37.718556" lon="112.403702"></trkpt>
<trkpt lat="37.718401" lon="112.403458"></trkpt>
<trkpt lat="37.71824" lon="112.403215"></trkpt>
<trkpt lat="37.718088" lon="112.40298"></trkpt>
<trkpt lat="37.717944" lon="112.402759"></trkpt>
<trkpt lat="37.717797" lon="112.40254"></trkpt>
<trkpt lat="37.717606" lon="112.402357"></trkpt>
<trkpt lat="37.717458" lon="112.402302"></trkpt>
<trkpt lat="37.717272" lon="112.402301"></trkpt>
<trkpt lat="37.717034" lon="112.402422"></trkpt>
<trkpt lat="37.716814" lon="112.402594"></trkpt>
<trkpt lat="37.716607" lon="112.402768"></trkpt>
<trkpt lat="37.716398" lon="112.402937"></trkpt>
<trkpt lat="37.716188" lon="112.403097"></trkpt>
<trkpt lat="37.71607" lon="112.403218"></trkpt>
<trkpt lat="37.715916" lon="112.403264"></trkpt>
<trkpt lat="37.71578" lon="112.403262"></trkpt>
<trkpt lat="37.715647" lon="112.403192"></trkpt>
<trkpt lat="37.715585" lon="112.403078"></trkpt>
<trkpt lat="37.715597" lon="112.402933"></trkpt>
<trkpt lat="37.71568" lon="112.402819"></trkpt>
<trkpt lat="37.715966" lon="112.402612"></trkpt>
<trkpt lat="37.716202" lon="112.402412"></trkpt>
<trkpt lat="37.716395" lon="112.402238"></trkpt>
<trkpt lat="37.716588" lon="112.40207"></trkpt>
<trkpt lat="37.716806" lon="112.401905"></trkpt>
<trkpt lat="37.716996" lon="112.401796"></trkpt>
<trkpt lat="37.717219" lon="112.401676"></trkpt>
<trkpt lat="37.717447" lon="112.401648"></trkpt>
<trkpt lat="37.717697" lon="112.401572"></trkpt>
<trkpt lat="37.717835" lon="112.401566"></trkpt>
<trkpt lat="37.718078" lon="112.401684"></trkpt>
<trkpt lat="37.718279" lon="112.401776"></trkpt>
<trkpt lat="37.718435" lon="112.401817"></trkpt>
<trkpt lat="37.718603" lon="112.401781"></trkpt>
<trkpt lat="37.718875" lon="112.40162"></trkpt>
<trkpt lat="37.719149" lon="112.401491"></trkpt>
<trkpt lat="37.71944" lon="112.401399"></trkpt>
<trkpt lat="37.719727" lon="112.401359"></trkpt>
<trkpt lat="37.720013" lon="112.401364"></trkpt>
<trkpt lat="37.720265" lon="112.401419"></trkpt>
<trkpt lat="37.720533" lon="112.401541"></trkpt>
<trkpt lat="37.720713" lon="112.401566"></trkpt>
<trkpt lat="37.721007" lon="112.401514"></trkpt>
<trkpt lat="37.721265" lon="112.401451"></trkpt>
<trkpt lat="37.721531" lon="112.401345"></trkpt>
<trkpt lat="37.721738" lon="112.401268"></trkpt>
<trkpt lat="37.721976" lon="112.401165"></trkpt>
<trkpt lat="37.722171" lon="112.401106"></trkpt>
<trkpt lat="37.722341" lon="112.400984"></trkpt>
<trkpt lat="37.722424" lon="112.400872"></trkpt>
<trkpt lat="37.722492" lon="112.400676"></trkpt>
<trkpt lat="37.722495" lon="112.400459"></trkpt>
<trkpt lat="37.722434" lon="112.400256"></trkpt>
<trkpt lat="37.72235" lon="112.400134"></trkpt>
<trkpt lat="37.72223" lon="112.400041"></trkpt>
<trkpt lat="37.722096" lon="112.399997"></trkpt>
<trkpt lat="37.721925" lon="112.400019"></trkpt>
<trkpt lat="37.721609" lon="112.400162"></trkpt>
<trkpt lat="37.721296" lon="112.400305"></trkpt>
<trkpt lat="37.721183" lon="112.400399"></trkpt>
<trkpt lat="37.721107" lon="112.400541"></trkpt>
<trkpt lat="37.721069" lon="112.400706"></trkpt>
<trkpt lat="37.72109" lon="112.400928"></trkpt>
<trkpt lat="37.721176" lon="112.40113"></trkpt>
<trkpt lat="37.72127" lon="112.401242"></trkpt>
<trkpt lat="37.721426" lon="112.401316"></trkpt>
<trkpt lat="37.721599" lon="112.401301"></trkpt>
<trkpt lat="37.72193" lon="112.401166"></trkpt>
<trkpt lat="37.722239" lon="112.40104"></trkpt>
<trkpt lat="37.722359" lon="112.400942"></trkpt>
<trkpt lat="37.722441" lon="112.400791"></trkpt>
<trkpt lat="37.722485" lon="112.400614"></trkpt>
<trkpt lat="37.722481" lon="112.400429"></trkpt>
<trkpt lat="37.722422" lon="112.400258"></trkpt>
<trkpt lat="37.722322" lon="112.40012"></trkpt>
<trkpt lat="37.722195" lon="112.400032"></trkpt>
<trkpt lat="37.722054" lon="112.399997"></trkpt>
<trkpt lat="37.721863" lon="112.400034"></trkpt>
<trkpt lat="37.721508" lon="112.400192"></trkpt>
<trkpt lat="37.721287" lon="112.400296"></trkpt>
<trkpt lat="37.721178" lon="112.400398"></trkpt>
<trkpt lat="37.721098" lon="112.400534"></trkpt>
<trkpt lat="37.721056" lon="112.400698"></trkpt>
<trkpt lat="37.721061" lon="112.400871"></trkpt>
<trkpt lat="37.721128" lon="112.401032"></trkpt>
<trkpt lat="37.721262" lon="112.401219"></trkpt>
<trkpt lat="37.72139" lon="112.401315"></trkpt>
<trkpt lat="37.721544" lon="112.401333"></trkpt>
<trkpt lat="37.721744" lon="112.401274"></trkpt>
<trkpt lat="37.722121" lon="112.401105"></trkpt>
<trkpt lat="37.722505" lon="112.400968"></trkpt>
<trkpt lat="37.722888" lon="112.400823"></trkpt>
<trkpt lat="37.72317" lon="112.400762"></trkpt>
<trkpt lat="37.723528" lon="112.400778"></trkpt>
<trkpt lat="37.723883" lon="112.400864"></trkpt>
<trkpt lat="37.724241" lon="112.400927"></trkpt>
<trkpt lat="37.724525" lon="112.401008"></trkpt>
<trkpt lat="37.724746" lon="112.401136"></trkpt>
<trkpt lat="37.725041" lon="112.401423"></trkpt>
<trkpt lat="37.725239" lon="112.401699"></trkpt>
<trkpt lat="37.725422" lon="112.402001"></trkpt>
<trkpt lat="37.725527" lon="112.402144"></trkpt>
<trkpt lat="37.725704" lon="112.40226"></trkpt>
<trkpt lat="37.725992" lon="112.402361"></trkpt>
<trkpt lat="37.726259" lon="112.402518"></trkpt>
<trkpt lat="37.726404" lon="112.402625"></trkpt>
<trkpt lat="37.726439" lon="112.402654"></trkpt>
<trkpt lat="37.726511" lon="112.402712"></trkpt>
<trkpt lat="37.726701" lon="112.402827"></trkpt>
<trkpt lat="37.726983" lon="112.402874"></trkpt>
<trkpt lat="37.727272" lon="112.402917"></trkpt>
<trkpt lat="37.727584" lon="112.403032"></trkpt>
<trkpt lat="37.727848" lon="112.403215"></trkpt>
<trkpt lat="37.727966" lon="112.403394"></trkpt>
<trkpt lat="37.728154" lon="112.403733"></trkpt>
<trkpt lat="37.728336" lon="112.403916"></trkpt>
<trkpt lat="37.728654" lon="112.404169"></trkpt>
<trkpt lat="37.728973" lon="112.404451"></trkpt>
<trkpt lat="37.72907" lon="112.404596"></trkpt>
<trkpt lat="37.729109" lon="112.404777"></trkpt>
<trkpt lat="37.729078" lon="112.404966"></trkpt>
<trkpt lat="37.728976" lon="112.405178"></trkpt>
<trkpt lat="37.728814" lon="112.405476"></trkpt>
<trkpt lat="37.728766" lon="112.405641"></trkpt>
<trkpt lat="37.728773" lon="112.405821"></trkpt>
<trkpt lat="37.728839" lon="112.405989"></trkpt>
<trkpt lat="37.728953" lon="112.406109"></trkpt>
<trkpt lat="37.729096" lon="112.406164"></trkpt>
<trkpt lat="37.729248" lon="112.406149"></trkpt>
<trkpt lat="37.729426" lon="112.406033"></trkpt>
<trkpt lat="37.729729" lon="112.40577"></trkpt>
<trkpt lat="37.729964" lon="112.405572"></trkpt>
<trkpt lat="37.730038" lon="112.405422"></trkpt>
<trkpt lat="37.730062" lon="112.405242"></trkpt>
<trkpt lat="37.730036" lon="112.405057"></trkpt>
<trkpt lat="37.729932" lon="112.404835"></trkpt>
<trkpt lat="37.729669" lon="112.404454"></trkpt>
<trkpt lat="37.729438" lon="112.404044"></trkpt>
<trkpt lat="37.729324" lon="112.403913"></trkpt>
<trkpt lat="37.729176" lon="112.40385"></trkpt>
<trkpt lat="37.728922" lon="112.403813"></trkpt>
<trkpt lat="37.728844" lon="112.403752"></trkpt>
<trkpt lat="37.728815" lon="112.403642"></trkpt>
<trkpt lat="37.728849" lon="112.403521"></trkpt>
<trkpt lat="37.728938" lon="112.40345"></trkpt>
<trkpt lat="37.72905" lon="112.403436"></trkpt>
<trkpt lat="37.729205" lon="112.403493"></trkpt>
<trkpt lat="37.729503" lon="112.403708"></trkpt>
<trkpt lat="37.729729" lon="112.403988"></trkpt>
<trkpt lat="37.729904" lon="112.404383"></trkpt>
<trkpt lat="37.730006" lon="112.404504"></trkpt>
<trkpt lat="37.730141" lon="112.404567"></trkpt>
<trkpt lat="37.730546" lon="112.404641"></trkpt>
<trkpt lat="37.730826" lon="112.40465"></trkpt>
<trkpt lat="37.731056" lon="112.404672"></trkpt>
<trkpt lat="37.731511" lon="112.404836"></trkpt>
<trkpt lat="37.731949" lon="112.404993"></trkpt>
<trkpt lat="37.73226" lon="112.405084"></trkpt>
<trkpt lat="37.732449" lon="112.405147"></trkpt>
<trkpt lat="37.732691" lon="112.40528"></trkpt>
<trkpt lat="37.733256" lon="112.4053"></trkpt>
<trkpt lat="37.73358" lon="112.405234"></trkpt>
<trkpt lat="37.733722" lon="112.40516"></trkpt>
<trkpt lat="37.733922" lon="112.40494"></trkpt>
<trkpt lat="37.733974" lon="112.4049"></trkpt>
<trkpt lat="37.73409" lon="112.404867"></trkpt>
<trkpt lat="37.734213" lon="112.404903"></trkpt>
<trkpt lat="37.7344" lon="112.405011"></trkpt>
<trkpt lat="37.734466" lon="112.405026"></trkpt>
<trkpt lat="37.734533" lon="112.405016"></trkpt>
<trkpt lat="37.734653" lon="112.404922"></trkpt>
<trkpt lat="37.734834" lon="112.4046"></trkpt>
<trkpt lat="37.735219" lon="112.403966"></trkpt>
<trkpt lat="37.735487" lon="112.4036"></trkpt>
<trkpt lat="37.735653" lon="112.40342"></trkpt>
<trkpt lat="37.735771" lon="112.403341"></trkpt>
<trkpt lat="37.735832" lon="112.403319"></trkpt>
<trkpt lat="37.73607" lon="112.403298"></trkpt>
<trkpt lat="37.736347" lon="112.403331"></trkpt>
<trkpt lat="37.736494" lon="112.40325"></trkpt>
<trkpt lat="37.73674" lon="112.403071"></trkpt>
<trkpt lat="37.736938" lon="112.402976"></trkpt>
<trkpt lat="37.737139" lon="112.402886"></trkpt>
<trkpt lat="37.737265" lon="112.402882"></trkpt>
<trkpt lat="37.737562" lon="112.403017"></trkpt>
<trkpt lat="37.73789" lon="112.403287"></trkpt>
<trkpt lat="37.737944" lon="112.403296"></trkpt>
<trkpt lat="37.737995" lon="112.403277"></trkpt>
</trkseg></trk></gpx>