<?xml version="1.0" encoding="UTF-8"?>
<gpx version="1.1" creator="velo-segment"><trk><name>西山旅游公路 奥申正爬</name><trkseg>
<trkpt lat="37.824665" lon="112.420594"></trkpt>
<trkpt lat="37.824423" lon="112.420205"></trkpt>
<trkpt lat="37.824183" lon="112.419928"></trkpt>
<trkpt lat="37.824007" lon="112.419753"></trkpt>
<trkpt lat="37.82382" lon="112.419627"></trkpt>
<trkpt lat="37.823551" lon="112.419406"></trkpt>
<trkpt lat="37.823237" lon="112.419185"></trkpt>
<trkpt lat="37.82291" lon="112.41895"></trkpt>
<trkpt lat="37.822565" lon="112.418696"></trkpt>
<trkpt lat="37.822242" lon="112.418424"></trkpt>
<trkpt lat="37.821944" lon="112.418105"></trkpt>
<trkpt lat="37.821707" lon="112.41792"></trkpt>
<trkpt lat="37.821395" lon="112.417698"></trkpt>
<trkpt lat="37.821115" lon="112.417482"></trkpt>
<trkpt lat="37.820849" lon="112.417249"></trkpt>
<trkpt lat="37.820606" lon="112.416977"></trkpt>
<trkpt lat="37.820384" lon="112.41668"></trkpt>
<trkpt lat="37.82016" lon="112.416402"></trkpt>
<trkpt lat="37.819933" lon="112.416102"></trkpt>
<trkpt lat="37.819691" lon="112.415766"></trkpt>
<trkpt lat="37.819418" lon="112.415419"></trkpt>
<trkpt lat="37.819288" lon="112.415332"></trkpt>
<trkpt lat="37.818868" lon="112.415204"></trkpt>
<trkpt lat="37.818437" lon="112.415134"></trkpt>
<trkpt lat="37.818037" lon="112.415073"></trkpt>
<trkpt lat="37.81785" lon="112.415009"></trkpt>
<trkpt lat="37.817731" lon="112.414898"></trkpt>
<trkpt lat="37.817481" lon="112.414526"></trkpt>
<trkpt lat="37.817262" lon="112.414187"></trkpt>
<trkpt lat="37.817021" lon="112.41387"></trkpt>
<trkpt lat="37.816825" lon="112.413589"></trkpt>
<trkpt lat="37.816744" lon="112.413416"></trkpt>
<trkpt lat="37.816687" lon="112.413282"></trkpt>
<trkpt lat="37.816509" lon="112.413049"></trkpt>
<trkpt lat="37.816337" lon="112.41283"></trkpt>
<trkpt lat="37.816145" lon="112.412585"></trkpt>
<trkpt lat="37.81591" lon="112.412334"></trkpt>
<trkpt lat="37.815629" lon="112.412085"></trkpt>
<trkpt lat="37.815367" lon="112.411886"></trkpt>
<trkpt lat="37.815214" lon="112.411813"></trkpt>
<trkpt lat="37.81505" lon="112.411803"></trkpt>
<trkpt lat="37.814878" lon="112.411637"></trkpt>
<trkpt lat="37.814784" lon="112.411467"></trkpt>
<trkpt lat="37.814642" lon="112.411286"></trkpt>
<trkpt lat="37.814507" lon="112.411162"></trkpt>
<trkpt lat="37.814327" lon="112.411084"></trkpt>
<trkpt lat="37.81413" lon="112.411089"></trkpt>
<trkpt lat="37.813918" lon="112.411087"></trkpt>
<trkpt lat="37.813716" lon="112.411102"></trkpt>
<trkpt lat="37.813561" lon="112.411131"></trkpt>
<trkpt lat="37.81341" lon="112.411159"></trkpt>
<trkpt lat="37.813253" lon="112.411145"></trkpt>
<trkpt lat="37.81308" lon="112.41106"></trkpt>
<trkpt lat="37.812916" lon="112.410998"></trkpt>
<trkpt lat="37.812672" lon="112.410944"></trkpt>
<trkpt lat="37.812503" lon="112.410899"></trkpt>
<trkpt lat="37.812247" lon="112.410695"></trkpt>
<trkpt lat="37.811931" lon="112.410547"></trkpt>
<trkpt lat="37.81163" lon="112.410443"></trkpt>
<trkpt lat="37.811236" lon="112.410408"></trkpt>
<trkpt lat="37.810883" lon="112.410419"></trkpt>
<trkpt lat="37.810651" lon="112.410437"></trkpt>
<trkpt lat="37.810486" lon="112.410445"></trkpt>
<trkpt lat="37.810318" lon="112.410373"></trkpt>
<trkpt lat="37.810162" lon="112.410274"></trkpt>
<trkpt lat="37.809992" lon="112.410264"></trkpt>
<trkpt lat="37.809798" lon="112.410339"></trkpt>
<trkpt lat="37.80962" lon="112.410385"></trkpt>
<trkpt lat="37.809455" lon="112.41039"></trkpt>
<trkpt lat="37.809313" lon="112.41034"></trkpt>
<trkpt lat="37.809179" lon="112.410243"></trkpt>
<trkpt lat="37.809044" lon="112.410137"></trkpt>
<trkpt lat="37.808885" lon="112.410035"></trkpt>
<trkpt lat="37.808727" lon="112.409988"></trkpt>
<trkpt lat="37.808509" lon="112.410011"></trkpt>
<trkpt lat="37.808293" lon="112.410117"></trkpt>
<trkpt lat="37.808114" lon="112.410285"></trkpt>
<trkpt lat="37.807933" lon="112.410437"></trkpt>
<trkpt lat="37.807747" lon="112.410549"></trkpt>
<trkpt lat="37.807566" lon="112.410632"></trkpt>
<trkpt lat="37.807386" lon="112.410716"></trkpt>
<trkpt lat="37.80719" lon="112.410818"></trkpt>
<trkpt lat="37.806998" lon="112.4109"></trkpt>
<trkpt lat="37.806824" lon="112.410955"></trkpt>
<trkpt lat="37.806576" lon="112.4109"></trkpt>
<trkpt lat="37.806378" lon="112.410864"></trkpt>
<trkpt lat="37.806173" lon="112.41092"></trkpt>
<trkpt lat="37.805954" lon="112.41103"></trkpt>
<trkpt lat="37.805795" lon="112.411043"></trkpt>
<trkpt lat="37.805506" lon="112.410965"></trkpt>
<trkpt lat="37.805344" lon="112.410956"></trkpt>
<trkpt lat="37.805159" lon="112.410954"></trkpt>
<trkpt lat="37.804941" lon="112.410891"></trkpt>
<trkpt lat="37.804721" lon="112.410709"></trkpt>
<trkpt lat="37.80448" lon="112.410484"></trkpt>
<trkpt lat="37.804295" lon="112.410367"></trkpt>
<trkpt lat="37.804191" lon="112.41035"></trkpt>
<trkpt lat="37.804013" lon="112.410444"></trkpt>
<trkpt lat="37.803838" lon="112.410583"></trkpt>
<trkpt lat="37.803678" lon="112.41069"></trkpt>
<trkpt lat="37.803536" lon="112.410776"></trkpt>
<trkpt lat="37.803371" lon="112.410792"></trkpt>
<trkpt lat="37.803168" lon="112.410753"></trkpt>
<trkpt lat="37.802963" lon="112.410737"></trkpt>
<trkpt lat="37.802782" lon="112.410801"></trkpt>
<trkpt lat="37.802627" lon="112.410914"></trkpt>
<trkpt lat="37.802485" lon="112.411012"></trkpt>
<trkpt lat="37.802286" lon="112.411094"></trkpt>
<trkpt lat="37.802117" lon="112.411113"></trkpt>
<trkpt lat="37.801909" lon="112.411025"></trkpt>
<trkpt lat="37.801681" lon="112.410936"></trkpt>
<trkpt lat="37.801466" lon="112.410904"></trkpt>
<trkpt lat="37.80126" lon="112.410909"></trkpt>
<trkpt lat="37.801086" lon="112.41096"></trkpt>
<trkpt lat="37.800904" lon="112.410922"></trkpt>
<trkpt lat="37.800719" lon="112.410866"></trkpt>
<trkpt lat="37.800552" lon="112.410819"></trkpt>
<trkpt lat="37.800428" lon="112.410834"></trkpt>
<trkpt lat="37.800287" lon="112.41095"></trkpt>
<trkpt lat="37.800123" lon="112.411001"></trkpt>
<trkpt lat="37.799917" lon="112.411017"></trkpt>
<trkpt lat="37.79968" lon="112.411023"></trkpt>
<trkpt lat="37.799447" lon="112.411002"></trkpt>
<trkpt lat="37.799216" lon="112.411009"></trkpt>
<trkpt lat="37.799067" lon="112.411"></trkpt>
<trkpt lat="37.798833" lon="112.411014"></trkpt>
<trkpt lat="37.798655" lon="112.410966"></trkpt>
<trkpt lat="37.798509" lon="112.410855"></trkpt>
<trkpt lat="37.798426" lon="112.410701"></trkpt>
<trkpt lat="37.798372" lon="112.41061"></trkpt>
<trkpt lat="37.798208" lon="112.410528"></trkpt>
<trkpt lat="37.798017" lon="112.410488"></trkpt>
<trkpt lat="37.7978" lon="112.410408"></trkpt>
<trkpt lat="37.797618" lon="112.410345"></trkpt>
<trkpt lat="37.797379" lon="112.410294"></trkpt>
<trkpt lat="37.797169" lon="112.410169"></trkpt>
<trkpt lat="37.797019" lon="112.410056"></trkpt>
<trkpt lat="37.796899" lon="112.409896"></trkpt>
<trkpt lat="37.796844" lon="112.409679"></trkpt>
<trkpt lat="37.79676" lon="112.409543"></trkpt>
<trkpt lat="37.79667" lon="112.409372"></trkpt>
<trkpt lat="37.796624" lon="112.409249"></trkpt>
<trkpt lat="37.796588" lon="112.409168"></trkpt>
<trkpt lat="37.796442" lon="112.409169"></trkpt>
<trkpt lat="37.796357" lon="112.409149"></trkpt>
<trkpt lat="37.796276" lon="112.409157"></trkpt>
<trkpt lat="37.796205" lon="112.409097"></trkpt>
<trkpt lat="37.796081" lon="112.409122"></trkpt>
<trkpt lat="37.796014" lon="112.409053"></trkpt>
<trkpt lat="37.795942" lon="112.408857"></trkpt>
<trkpt lat="37.795933" lon="112.408778"></trkpt>
<trkpt lat="37.79594" lon="112.40863"></trkpt>
<trkpt lat="37.795972" lon="112.40851"></trkpt>
<trkpt lat="37.796055" lon="112.408407"></trkpt>
<trkpt lat="37.796142" lon="112.408318"></trkpt>
<trkpt lat="37.79625" lon="112.408264"></trkpt>
<trkpt lat="37.796352" lon="112.408291"></trkpt>
<trkpt lat="37.796481" lon="112.408348"></trkpt>
<trkpt lat="37.796567" lon="112.408389"></trkpt>
<trkpt lat="37.796638" lon="112.408479"></trkpt>
<trkpt lat="37.796773" lon="112.408545"></trkpt>
<trkpt lat="37.796902" lon="112.408581"></trkpt>
<trkpt lat="37.797039" lon="112.408548"></trkpt>
<trkpt lat="37.797235" lon="112.408604"></trkpt>
<trkpt lat="37.797432" lon="112.408629"></trkpt>
<trkpt lat="37.797525" lon="112.408604"></trkpt>
<trkpt lat="37.797559" lon="112.408567"></trkpt>
<trkpt lat="37.797623" lon="112.408588"></trkpt>
<trkpt lat="37.797672" lon="112.408635"></trkpt>
<trkpt lat="37.797791" lon="112.408566"></trkpt>
<trkpt lat="37.7979" lon="112.408634"></trkpt>
<trkpt lat="37.798018" lon="112.40857"></trkpt>
<trkpt lat="37.79809" lon="112.408619"></trkpt>
<trkpt lat="37.798158" lon="112.408543"></trkpt>
<trkpt lat="37.798245" lon="112.408606"></trkpt>
<trkpt lat="37.798306" lon="112.40855"></trkpt>
<trkpt lat="37.798373" lon="112.408494"></trkpt>
<trkpt lat="37.798449" lon="112.408519"></trkpt>
<trkpt lat="37.798492" lon="112.408555"></trkpt>
<trkpt lat="37.798608" lon="112.408476"></trkpt>
<trkpt lat="37.798732" lon="112.408402"></trkpt>
<trkpt lat="37.798864" lon="112.408391"></trkpt>
<trkpt lat="37.798958" lon="112.408366"></trkpt>
<trkpt lat="37.79909" lon="112.408309"></trkpt>
<trkpt lat="37.799214" lon="112.408279"></trkpt>
<trkpt lat="37.799335" lon="112.408259"></trkpt>
<trkpt lat="37.799455" lon="112.408218"></trkpt>
<trkpt lat="37.799527" lon="112.408224"></trkpt>
<trkpt lat="37.799579" lon="112.408269"></trkpt>
<trkpt lat="37.799686" lon="112.408215"></trkpt>
<trkpt lat="37.799792" lon="112.408086"></trkpt>
<trkpt lat="37.799829" lon="112.40797"></trkpt>
<trkpt lat="37.799816" lon="112.407837"></trkpt>
<trkpt lat="37.799749" lon="112.407689"></trkpt>
<trkpt lat="37.799631" lon="112.407563"></trkpt>
<trkpt lat="37.799595" lon="112.407528"></trkpt>
<trkpt lat="37.799537" lon="112.407509"></trkpt>
<trkpt lat="37.799471" lon="112.407507"></trkpt>
<trkpt lat="37.799406" lon="112.407376"></trkpt>
<trkpt lat="37.799364" lon="112.407321"></trkpt>
<trkpt lat="37.799255" lon="112.407267"></trkpt>
<trkpt lat="37.799163" lon="112.40722"></trkpt>
<trkpt lat="37.799104" lon="112.407084"></trkpt>
<trkpt lat="37.799074" lon="112.407051"></trkpt>
<trkpt lat="37.798983" lon="112.407061"></trkpt>
<trkpt lat="37.798874" lon="112.407225"></trkpt>
<trkpt lat="37.798795" lon="112.407336"></trkpt>
<trkpt lat="37.79871" lon="112.407365"></trkpt>
<trkpt lat="37.798639" lon="112.407325"></trkpt>
<trkpt lat="37.798589" lon="112.407215"></trkpt>
<trkpt lat="37.798522" lon="112.407148"></trkpt>
<trkpt lat="37.798455" lon="112.407007"></trkpt>
<trkpt lat="37.798389" lon="112.406901"></trkpt>
<trkpt lat="37.798339" lon="112.406801"></trkpt>
<trkpt lat="37.798257" lon="112.406705"></trkpt>
<trkpt lat="37.798236" lon="112.40659"></trkpt>
<trkpt lat="37.798163" lon="112.406538"></trkpt>
<trkpt lat="37.79815" lon="112.406397"></trkpt>
<trkpt lat="37.798079" lon="112.406341"></trkpt>
<trkpt lat="37.798045" lon="112.406226"></trkpt>
<trkpt lat="37.798022" lon="112.406087"></trkpt>
<trkpt lat="37.797978" lon="112.405978"></trkpt>
<trkpt lat="37.79799" lon="112.405822"></trkpt>
<trkpt lat="37.797914" lon="112.405593"></trkpt>
<trkpt lat="37.797909" lon="112.405443"></trkpt>
<trkpt lat="37.797958" lon="112.405213"></trkpt>
<trkpt lat="37.798075" lon="112.405016"></trkpt>
<trkpt lat="37.798165" lon="112.404875"></trkpt>
<trkpt lat="37.798226" lon="112.404716"></trkpt>
<trkpt lat="37.798358" lon="112.404621"></trkpt>
<trkpt lat="37.798421" lon="112.404561"></trkpt>
<trkpt lat="37.798445" lon="112.404504"></trkpt>
<trkpt lat="37.798466" lon="112.404393"></trkpt>
<trkpt lat="37.79854" lon="112.404323"></trkpt>
<trkpt lat="37.798609" lon="112.404301"></trkpt>
<trkpt lat="37.79872" lon="112.404156"></trkpt>
<trkpt lat="37.798802" lon="112.403971"></trkpt>
<trkpt lat="37.798975" lon="112.403792"></trkpt>
<trkpt lat="37.799121" lon="112.403624"></trkpt>
<trkpt lat="37.799299" lon="112.40343"></trkpt>
<trkpt lat="37.799468" lon="112.403279"></trkpt>
<trkpt lat="37.799658" lon="112.40303"></trkpt>
<trkpt lat="37.799811" lon="112.40283"></trkpt>
<trkpt lat="37.799864" lon="112.402695"></trkpt>
<trkpt lat="37.79985" lon="112.402585"></trkpt>
<trkpt lat="37.799817" lon="112.402524"></trkpt>
<trkpt lat="37.799674" lon="112.402449"></trkpt>
<trkpt lat="37.79959" lon="112.402417"></trkpt>
<trkpt lat="37.799441" lon="112.402534"></trkpt>
<trkpt lat="37.799363" lon="112.402532"></trkpt>
<trkpt lat="37.799335" lon="112.402585"></trkpt>
<trkpt lat="37.799276" lon="112.40273"></trkpt>
<trkpt lat="37.79913" lon="112.40282"></trkpt>
<trkpt lat="37.799023" lon="112.40287"></trkpt>
<trkpt lat="37.79887" lon="112.402837"></trkpt>
<trkpt lat="37.798722" lon="112.402856"></trkpt>
<trkpt lat="37.798596" lon="112.402815"></trkpt>
<trkpt lat="37.798466" lon="112.402729"></trkpt>
<trkpt lat="37.798345" lon="112.402541"></trkpt>
<trkpt lat="37.798228" lon="112.402402"></trkpt>
<trkpt lat="37.798107" lon="112.402202"></trkpt>
<trkpt lat="37.798044" lon="112.401957"></trkpt>
<trkpt lat="37.797993" lon="112.40169"></trkpt>
<trkpt lat="37.797957" lon="112.401501"></trkpt>
<trkpt lat="37.797905" lon="112.401251"></trkpt>
<trkpt lat="37.797847" lon="112.400889"></trkpt>
<trkpt lat="37.797837" lon="112.400571"></trkpt>
</trkseg></trk></gpx>